<?xml version="1.0" encoding="UTF-8"?>
<gpx version="1.1" creator="bakalgaijin-mapa (rota a pé)" xmlns="http://www.topografix.com/GPX/1/1">
  <metadata><name>Rota a pé — Baka Gaijin</name></metadata>
  <wpt lat="35.694200" lon="139.704200">
    <name>0:12:05 — Golden Gai</name>
    <desc>Golden Gai</desc>
  </wpt>
  <wpt lat="35.694600" lon="139.703100">
    <name>0:17:05 — 17:05</name>
    <desc>Seibu Shinjuku Ekimae Dori</desc>
  </wpt>
  <wpt lat="35.694256" lon="139.702617">
    <name>0:22:05 — おきなわ ハイサイ酒場 (Okinawa Haisai Sakaba)</name>
    <desc>Kabukicho Ichibangai · おきなわ ハイサイ酒場 (Okinawa Haisai Sakaba) · 浜ちゃん (Hamachan)</desc>
  </wpt>
  <wpt lat="35.694200" lon="139.703450">
    <name>0:27:05 — 武蔵武骨相傳 (Musashi Bukotsu Souden)</name>
    <desc>Shinjuku Golden Gai (新宿ゴールデン街) · 武蔵武骨相傳 (Musashi Bukotsu Souden) · 焼肉屋 (Yakiniku-ya)</desc>
  </wpt>
  <wpt lat="35.694600" lon="139.703200">
    <name>0:32:05 — Beco de Kabukichō (possivelmente Golden Gai)</name>
    <desc>Beco de Kabukichō (possivelmente Golden Gai)</desc>
  </wpt>
  <wpt lat="35.694521" lon="139.702326">
    <name>0:37:05 — Coca-Cola vending machine</name>
    <desc>Kabukicho Ichibangai</desc>
  </wpt>
  <wpt lat="35.694067" lon="139.702411">
    <name>0:42:05 — 新栄会</name>
    <desc>Não identificada com certeza, mas é um beco/rua secundária e · 新栄会 · とんかつ</desc>
  </wpt>
  <wpt lat="35.693650" lon="139.702742">
    <name>0:47:05 — とろ一 (Toroichi)</name>
    <desc>Shinjuku Golden Gai · とろ一 (Toroichi)</desc>
  </wpt>
  <wpt lat="35.694653" lon="139.703913">
    <name>0:52:05 — 52:05</name>
    <desc>Shinjuku Golden Gai</desc>
  </wpt>
  <wpt lat="35.694609" lon="139.702736">
    <name>0:57:05 — Não identificada com clareza</name>
    <desc>Shinjuku Golden Gai</desc>
  </wpt>
  <wpt lat="35.694625" lon="139.702275">
    <name>1:02:05 — Não identificável</name>
    <desc>Kabukicho</desc>
  </wpt>
  <wpt lat="35.692625" lon="139.703625">
    <name>1:07:05 — Hanazono Shrine (Santuário Hanazono)</name>
    <desc>Não identificável diretamente na imagem · Hanazono Shrine (Santuário Hanazono)</desc>
  </wpt>
  <wpt lat="35.694660" lon="139.704450">
    <name>1:12:05 — Santuário Hanazono Jinja</name>
    <desc>Shinjuku Golden Gai</desc>
  </wpt>
  <wpt lat="35.693461" lon="139.703650">
    <name>1:17:05 — 1:17:05</name>
    <desc>Shinjuku Golden Gai</desc>
  </wpt>
  <wpt lat="35.690424" lon="139.705449">
    <name>1:22:05 — Sanrio</name>
    <desc>Shinobazu-dori Ave. · Sanrio · Natural Advance · カラオケ館 (Karaoke Kan) · エスパス (ESPACE)</desc>
  </wpt>
  <wpt lat="35.689149" lon="139.706425">
    <name>1:27:05 — Não identificável</name>
    <desc>Não identificável com precisão</desc>
  </wpt>
  <wpt lat="35.688501" lon="139.707782">
    <name>1:32:05 — Não identificável com certeza</name>
    <desc>Não aplicável (dentro de um complexo de templo)</desc>
  </wpt>
  <wpt lat="35.691855" lon="139.704216">
    <name>1:37:05 — Não identificável na imagem</name>
    <desc>Não identificável na imagem</desc>
  </wpt>
  <wpt lat="35.690935" lon="139.705771">
    <name>1:42:05 — Parque Shinjuku Gyoen (próximo ao lago)</name>
    <desc>Parque Shinjuku Gyoen (próximo ao lago)</desc>
  </wpt>
  <wpt lat="35.688422" lon="139.707999">
    <name>1:47:05 — Não identificável, mas dentro do Shinjuku Gyoen National Gar</name>
    <desc>Não identificável, mas dentro do Shinjuku Gyoen National Gar</desc>
  </wpt>
  <wpt lat="35.689173" lon="139.704686">
    <name>1:52:05 — não identificada (caminho dentro do parque)</name>
    <desc>não identificada (caminho dentro do parque)</desc>
  </wpt>
  <wpt lat="35.686491" lon="139.702976">
    <name>1:57:05 — Não identificável</name>
    <desc>Meiji-Jingu</desc>
  </wpt>
  <wpt lat="35.689519" lon="139.701081">
    <name>2:02:05 — ココカラファイン (Cocokarafine)</name>
    <desc>Não identificável diretamente na imagem · ココカラファイン (Cocokarafine)</desc>
  </wpt>
  <wpt lat="35.689738" lon="139.698126">
    <name>2:07:05 — Não identificada</name>
    <desc>Não identificável diretamente na imagem</desc>
  </wpt>
  <wpt lat="35.690306" lon="139.693122">
    <name>2:12:05 — Não identificada, provavelmente um caminho dentro de um parq</name>
    <desc>Não identificada, provavelmente um caminho dentro de um parq</desc>
  </wpt>
  <wpt lat="35.691638" lon="139.700692">
    <name>2:17:05 — Pachinko &amp; Slot ESPACE</name>
    <desc>Shinjuku-dori · Pachinko &amp; Slot ESPACE · Sugi Pharmacy (スギ薬局) · TSUTSUMI</desc>
  </wpt>
  <wpt lat="35.694400" lon="139.703450">
    <name>2:22:05 — Asahi Beer (lanternas)</name>
    <desc>Golden Gai · Asahi Beer (lanternas) · おなべちゃん (Onabe-chan) · らんだむ (Random)</desc>
  </wpt>
  <wpt lat="35.691598" lon="139.701893">
    <name>2:27:05 — Uniqlo</name>
    <desc>Shinjuku-dori (新宿通り) · Uniqlo · atre</desc>
  </wpt>
  <wpt lat="35.692680" lon="139.703111">
    <name>2:32:05 — Wendy's First Kitchen</name>
    <desc>Kabukicho · Wendy's First Kitchen</desc>
  </wpt>
  <wpt lat="35.693050" lon="139.703019">
    <name>2:37:05 — não identificada</name>
    <desc>Golden Gai (Shinjuku Golden Street)</desc>
  </wpt>
  <wpt lat="35.693928" lon="139.702294">
    <name>2:42:05 — La Cocorico Shinjuku (ラ・ココリコ 新宿)</name>
    <desc>Meiji-dori (明治通り) · La Cocorico Shinjuku (ラ・ココリコ 新宿) · Don Quijote Shinjuku Kabukicho (ドン・キホーテ 新宿歌舞伎町店)</desc>
  </wpt>
  <wpt lat="35.690697" lon="139.700929">
    <name>2:47:05 — Mizuho Bank</name>
    <desc>Shinjuku-dori (新宿通り) · Mizuho Bank · Shinjuku-dori Building</desc>
  </wpt>
  <wpt lat="35.691230" lon="139.702950">
    <name>2:49:05 — まるか (Maruka)</name>
    <desc>Shinjuku-dori · まるか (Maruka) · 鳥貴族 (Torikizoku) · CALUNA</desc>
  </wpt>
  <trk>
    <name>Rota a pé (sem voltas)</name>
    <trkseg>
      <trkpt lat="35.694242" lon="139.704060"/>
      <trkpt lat="35.693881" lon="139.703895"/>
      <trkpt lat="35.693897" lon="139.703832"/>
      <trkpt lat="35.694197" lon="139.703962"/>
      <trkpt lat="35.694214" lon="139.703900"/>
      <trkpt lat="35.694297" lon="139.703582"/>
      <trkpt lat="35.694365" lon="139.703324"/>
      <trkpt lat="35.694470" lon="139.703376"/>
      <trkpt lat="35.694515" lon="139.703190"/>
      <trkpt lat="35.694521" lon="139.703164"/>
      <trkpt lat="35.694542" lon="139.703079"/>
      <trkpt lat="35.694596" lon="139.702853"/>
      <trkpt lat="35.694237" lon="139.702676"/>
      <trkpt lat="35.694178" lon="139.702647"/>
      <trkpt lat="35.694095" lon="139.702991"/>
      <trkpt lat="35.694054" lon="139.703160"/>
      <trkpt lat="35.694365" lon="139.703324"/>
      <trkpt lat="35.694319" lon="139.703498"/>
      <trkpt lat="35.694365" lon="139.703324"/>
      <trkpt lat="35.694470" lon="139.703376"/>
      <trkpt lat="35.694515" lon="139.703190"/>
      <trkpt lat="35.694521" lon="139.703164"/>
      <trkpt lat="35.694601" lon="139.703194"/>
      <trkpt lat="35.694521" lon="139.703164"/>
      <trkpt lat="35.694596" lon="139.702853"/>
      <trkpt lat="35.694639" lon="139.702676"/>
      <trkpt lat="35.694669" lon="139.702551"/>
      <trkpt lat="35.694721" lon="139.702334"/>
      <trkpt lat="35.694492" lon="139.702249"/>
      <trkpt lat="35.694477" lon="139.702309"/>
      <trkpt lat="35.694492" lon="139.702249"/>
      <trkpt lat="35.694294" lon="139.702176"/>
      <trkpt lat="35.694267" lon="139.702288"/>
      <trkpt lat="35.694220" lon="139.702477"/>
      <trkpt lat="35.694188" lon="139.702605"/>
      <trkpt lat="35.694178" lon="139.702647"/>
      <trkpt lat="35.694016" lon="139.702569"/>
      <trkpt lat="35.694178" lon="139.702647"/>
      <trkpt lat="35.694095" lon="139.702991"/>
      <trkpt lat="35.694054" lon="139.703160"/>
      <trkpt lat="35.693646" lon="139.702953"/>
      <trkpt lat="35.693590" lon="139.702925"/>
      <trkpt lat="35.693646" lon="139.702953"/>
      <trkpt lat="35.694054" lon="139.703160"/>
      <trkpt lat="35.694365" lon="139.703324"/>
      <trkpt lat="35.694297" lon="139.703582"/>
      <trkpt lat="35.694697" lon="139.703777"/>
      <trkpt lat="35.694806" lon="139.703830"/>
      <trkpt lat="35.694813" lon="139.703789"/>
      <trkpt lat="35.694827" lon="139.703717"/>
      <trkpt lat="35.694863" lon="139.703571"/>
      <trkpt lat="35.694470" lon="139.703376"/>
      <trkpt lat="35.694515" lon="139.703190"/>
      <trkpt lat="35.694521" lon="139.703164"/>
      <trkpt lat="35.694596" lon="139.702853"/>
      <trkpt lat="35.694623" lon="139.702741"/>
      <trkpt lat="35.694639" lon="139.702676"/>
      <trkpt lat="35.694669" lon="139.702551"/>
      <trkpt lat="35.694721" lon="139.702334"/>
      <trkpt lat="35.694620" lon="139.702296"/>
      <trkpt lat="35.694492" lon="139.702249"/>
      <trkpt lat="35.694294" lon="139.702176"/>
      <trkpt lat="35.694267" lon="139.702288"/>
      <trkpt lat="35.694220" lon="139.702477"/>
      <trkpt lat="35.694188" lon="139.702605"/>
      <trkpt lat="35.694178" lon="139.702647"/>
      <trkpt lat="35.694095" lon="139.702991"/>
      <trkpt lat="35.694054" lon="139.703160"/>
      <trkpt lat="35.693646" lon="139.702953"/>
      <trkpt lat="35.693463" lon="139.702862"/>
      <trkpt lat="35.693446" lon="139.702853"/>
      <trkpt lat="35.693424" lon="139.702848"/>
      <trkpt lat="35.693417" lon="139.702878"/>
      <trkpt lat="35.693416" lon="139.702884"/>
      <trkpt lat="35.693427" lon="139.702914"/>
      <trkpt lat="35.693377" lon="139.703086"/>
      <trkpt lat="35.693348" lon="139.703189"/>
      <trkpt lat="35.693285" lon="139.703410"/>
      <trkpt lat="35.693239" lon="139.703390"/>
      <trkpt lat="35.693236" lon="139.703389"/>
      <trkpt lat="35.693174" lon="139.703362"/>
      <trkpt lat="35.693125" lon="139.703341"/>
      <trkpt lat="35.693103" lon="139.703332"/>
      <trkpt lat="35.693054" lon="139.703311"/>
      <trkpt lat="35.692995" lon="139.703286"/>
      <trkpt lat="35.692991" lon="139.703284"/>
      <trkpt lat="35.692960" lon="139.703269"/>
      <trkpt lat="35.692916" lon="139.703426"/>
      <trkpt lat="35.692915" lon="139.703431"/>
      <trkpt lat="35.692907" lon="139.703459"/>
      <trkpt lat="35.692899" lon="139.703488"/>
      <trkpt lat="35.692897" lon="139.703494"/>
      <trkpt lat="35.692856" lon="139.703641"/>
      <trkpt lat="35.692698" lon="139.704204"/>
      <trkpt lat="35.692696" lon="139.704211"/>
      <trkpt lat="35.692688" lon="139.704240"/>
      <trkpt lat="35.692680" lon="139.704268"/>
      <trkpt lat="35.692679" lon="139.704274"/>
      <trkpt lat="35.692631" lon="139.704444"/>
      <trkpt lat="35.692629" lon="139.704449"/>
      <trkpt lat="35.692620" lon="139.704483"/>
      <trkpt lat="35.692360" lon="139.704334"/>
      <trkpt lat="35.692326" lon="139.704315"/>
      <trkpt lat="35.692336" lon="139.704286"/>
      <trkpt lat="35.692327" lon="139.704258"/>
      <trkpt lat="35.692295" lon="139.704239"/>
      <trkpt lat="35.692311" lon="139.704190"/>
      <trkpt lat="35.692514" lon="139.703603"/>
      <trkpt lat="35.692517" lon="139.703589"/>
      <trkpt lat="35.692514" lon="139.703603"/>
      <trkpt lat="35.692311" lon="139.704190"/>
      <trkpt lat="35.692295" lon="139.704239"/>
      <trkpt lat="35.692327" lon="139.704258"/>
      <trkpt lat="35.692336" lon="139.704286"/>
      <trkpt lat="35.692326" lon="139.704315"/>
      <trkpt lat="35.692360" lon="139.704334"/>
      <trkpt lat="35.692620" lon="139.704483"/>
      <trkpt lat="35.692629" lon="139.704449"/>
      <trkpt lat="35.692631" lon="139.704444"/>
      <trkpt lat="35.692679" lon="139.704274"/>
      <trkpt lat="35.692680" lon="139.704268"/>
      <trkpt lat="35.692688" lon="139.704240"/>
      <trkpt lat="35.692696" lon="139.704211"/>
      <trkpt lat="35.692698" lon="139.704204"/>
      <trkpt lat="35.692856" lon="139.703641"/>
      <trkpt lat="35.692891" lon="139.703655"/>
      <trkpt lat="35.692896" lon="139.703657"/>
      <trkpt lat="35.692950" lon="139.703680"/>
      <trkpt lat="35.693001" lon="139.703701"/>
      <trkpt lat="35.693019" lon="139.703709"/>
      <trkpt lat="35.693072" lon="139.703731"/>
      <trkpt lat="35.693124" lon="139.703753"/>
      <trkpt lat="35.693130" lon="139.703756"/>
      <trkpt lat="35.693170" lon="139.703773"/>
      <trkpt lat="35.693200" lon="139.703673"/>
      <trkpt lat="35.693217" lon="139.703705"/>
      <trkpt lat="35.693223" lon="139.703716"/>
      <trkpt lat="35.693249" lon="139.703728"/>
      <trkpt lat="35.693289" lon="139.703796"/>
      <trkpt lat="35.693317" lon="139.703839"/>
      <trkpt lat="35.693367" lon="139.703908"/>
      <trkpt lat="35.693407" lon="139.703957"/>
      <trkpt lat="35.693428" lon="139.703992"/>
      <trkpt lat="35.693447" lon="139.704009"/>
      <trkpt lat="35.693475" lon="139.704034"/>
      <trkpt lat="35.693543" lon="139.704089"/>
      <trkpt lat="35.693575" lon="139.704110"/>
      <trkpt lat="35.693617" lon="139.704133"/>
      <trkpt lat="35.693728" lon="139.704184"/>
      <trkpt lat="35.693741" lon="139.704198"/>
      <trkpt lat="35.693742" lon="139.704220"/>
      <trkpt lat="35.693778" lon="139.704219"/>
      <trkpt lat="35.693797" lon="139.704219"/>
      <trkpt lat="35.693827" lon="139.704246"/>
      <trkpt lat="35.693872" lon="139.704268"/>
      <trkpt lat="35.693891" lon="139.704274"/>
      <trkpt lat="35.694048" lon="139.704311"/>
      <trkpt lat="35.694269" lon="139.704410"/>
      <trkpt lat="35.694464" lon="139.704497"/>
      <trkpt lat="35.694576" lon="139.704548"/>
      <trkpt lat="35.694590" lon="139.704561"/>
      <trkpt lat="35.694576" lon="139.704548"/>
      <trkpt lat="35.694464" lon="139.704497"/>
      <trkpt lat="35.694269" lon="139.704410"/>
      <trkpt lat="35.694048" lon="139.704311"/>
      <trkpt lat="35.693891" lon="139.704274"/>
      <trkpt lat="35.693872" lon="139.704268"/>
      <trkpt lat="35.693827" lon="139.704246"/>
      <trkpt lat="35.693797" lon="139.704219"/>
      <trkpt lat="35.693881" lon="139.703895"/>
      <trkpt lat="35.693897" lon="139.703832"/>
      <trkpt lat="35.693540" lon="139.703666"/>
      <trkpt lat="35.693462" lon="139.703629"/>
      <trkpt lat="35.693315" lon="139.703561"/>
      <trkpt lat="35.693246" lon="139.703529"/>
      <trkpt lat="35.693231" lon="139.703583"/>
      <trkpt lat="35.693227" lon="139.703595"/>
      <trkpt lat="35.693200" lon="139.703673"/>
      <trkpt lat="35.693170" lon="139.703773"/>
      <trkpt lat="35.692964" lon="139.704513"/>
      <trkpt lat="35.692935" lon="139.704571"/>
      <trkpt lat="35.692920" lon="139.704624"/>
      <trkpt lat="35.692907" lon="139.704674"/>
      <trkpt lat="35.692912" lon="139.704697"/>
      <trkpt lat="35.692749" lon="139.705323"/>
      <trkpt lat="35.692735" lon="139.705380"/>
      <trkpt lat="35.692723" lon="139.705431"/>
      <trkpt lat="35.692676" lon="139.705604"/>
      <trkpt lat="35.692639" lon="139.705590"/>
      <trkpt lat="35.692577" lon="139.705567"/>
      <trkpt lat="35.692496" lon="139.705537"/>
      <trkpt lat="35.692487" lon="139.705534"/>
      <trkpt lat="35.692441" lon="139.705516"/>
      <trkpt lat="35.692387" lon="139.705495"/>
      <trkpt lat="35.692356" lon="139.705485"/>
      <trkpt lat="35.692347" lon="139.705519"/>
      <trkpt lat="35.692279" lon="139.705560"/>
      <trkpt lat="35.692245" lon="139.705580"/>
      <trkpt lat="35.691967" lon="139.705415"/>
      <trkpt lat="35.691961" lon="139.705400"/>
      <trkpt lat="35.691948" lon="139.705393"/>
      <trkpt lat="35.691915" lon="139.705373"/>
      <trkpt lat="35.691889" lon="139.705358"/>
      <trkpt lat="35.691876" lon="139.705349"/>
      <trkpt lat="35.691861" lon="139.705352"/>
      <trkpt lat="35.691848" lon="139.705344"/>
      <trkpt lat="35.691072" lon="139.704892"/>
      <trkpt lat="35.691069" lon="139.704900"/>
      <trkpt lat="35.691052" lon="139.704943"/>
      <trkpt lat="35.691024" lon="139.705014"/>
      <trkpt lat="35.690999" lon="139.705076"/>
      <trkpt lat="35.690995" lon="139.705086"/>
      <trkpt lat="35.690954" lon="139.705062"/>
      <trkpt lat="35.690861" lon="139.705095"/>
      <trkpt lat="35.690787" lon="139.705048"/>
      <trkpt lat="35.690711" lon="139.705000"/>
      <trkpt lat="35.690662" lon="139.705095"/>
      <trkpt lat="35.690483" lon="139.705490"/>
      <trkpt lat="35.690430" lon="139.705608"/>
      <trkpt lat="35.690386" lon="139.705699"/>
      <trkpt lat="35.690461" lon="139.705756"/>
      <trkpt lat="35.690526" lon="139.705806"/>
      <trkpt lat="35.690403" lon="139.706073"/>
      <trkpt lat="35.690372" lon="139.706139"/>
      <trkpt lat="35.690345" lon="139.706202"/>
      <trkpt lat="35.690190" lon="139.706547"/>
      <trkpt lat="35.690186" lon="139.706611"/>
      <trkpt lat="35.690093" lon="139.706566"/>
      <trkpt lat="35.690014" lon="139.706527"/>
      <trkpt lat="35.689967" lon="139.706557"/>
      <trkpt lat="35.689941" lon="139.706578"/>
      <trkpt lat="35.689884" lon="139.706581"/>
      <trkpt lat="35.689865" lon="139.706627"/>
      <trkpt lat="35.689820" lon="139.706603"/>
      <trkpt lat="35.689775" lon="139.706580"/>
      <trkpt lat="35.689695" lon="139.706532"/>
      <trkpt lat="35.689552" lon="139.706425"/>
      <trkpt lat="35.689471" lon="139.706366"/>
      <trkpt lat="35.689362" lon="139.706518"/>
      <trkpt lat="35.689307" lon="139.706595"/>
      <trkpt lat="35.689281" lon="139.706575"/>
      <trkpt lat="35.689220" lon="139.706530"/>
      <trkpt lat="35.689187" lon="139.706507"/>
      <trkpt lat="35.689126" lon="139.706466"/>
      <trkpt lat="35.688971" lon="139.706901"/>
      <trkpt lat="35.688839" lon="139.707252"/>
      <trkpt lat="35.688790" lon="139.707430"/>
      <trkpt lat="35.688774" lon="139.707490"/>
      <trkpt lat="35.688647" lon="139.707809"/>
      <trkpt lat="35.688619" lon="139.707867"/>
      <trkpt lat="35.688647" lon="139.707809"/>
      <trkpt lat="35.688774" lon="139.707490"/>
      <trkpt lat="35.688790" lon="139.707430"/>
      <trkpt lat="35.688839" lon="139.707252"/>
      <trkpt lat="35.688971" lon="139.706901"/>
      <trkpt lat="35.689126" lon="139.706466"/>
      <trkpt lat="35.689187" lon="139.706507"/>
      <trkpt lat="35.689220" lon="139.706530"/>
      <trkpt lat="35.689281" lon="139.706575"/>
      <trkpt lat="35.689307" lon="139.706595"/>
      <trkpt lat="35.689362" lon="139.706518"/>
      <trkpt lat="35.689471" lon="139.706366"/>
      <trkpt lat="35.689552" lon="139.706425"/>
      <trkpt lat="35.689695" lon="139.706532"/>
      <trkpt lat="35.689775" lon="139.706580"/>
      <trkpt lat="35.689820" lon="139.706603"/>
      <trkpt lat="35.689865" lon="139.706627"/>
      <trkpt lat="35.689884" lon="139.706581"/>
      <trkpt lat="35.689941" lon="139.706578"/>
      <trkpt lat="35.689967" lon="139.706557"/>
      <trkpt lat="35.690014" lon="139.706527"/>
      <trkpt lat="35.690379" lon="139.705715"/>
      <trkpt lat="35.690386" lon="139.705699"/>
      <trkpt lat="35.690461" lon="139.705756"/>
      <trkpt lat="35.690526" lon="139.705806"/>
      <trkpt lat="35.690530" lon="139.705797"/>
      <trkpt lat="35.690581" lon="139.705684"/>
      <trkpt lat="35.690603" lon="139.705659"/>
      <trkpt lat="35.690622" lon="139.705620"/>
      <trkpt lat="35.690626" lon="139.705582"/>
      <trkpt lat="35.690767" lon="139.705289"/>
      <trkpt lat="35.690815" lon="139.705187"/>
      <trkpt lat="35.690861" lon="139.705095"/>
      <trkpt lat="35.690954" lon="139.705062"/>
      <trkpt lat="35.690995" lon="139.705086"/>
      <trkpt lat="35.690999" lon="139.705076"/>
      <trkpt lat="35.691024" lon="139.705014"/>
      <trkpt lat="35.691052" lon="139.704943"/>
      <trkpt lat="35.691069" lon="139.704900"/>
      <trkpt lat="35.691072" lon="139.704892"/>
      <trkpt lat="35.691047" lon="139.704803"/>
      <trkpt lat="35.691029" lon="139.704738"/>
      <trkpt lat="35.691237" lon="139.704279"/>
      <trkpt lat="35.691395" lon="139.703898"/>
      <trkpt lat="35.691409" lon="139.703867"/>
      <trkpt lat="35.691425" lon="139.703830"/>
      <trkpt lat="35.691440" lon="139.703799"/>
      <trkpt lat="35.691446" lon="139.703785"/>
      <trkpt lat="35.691548" lon="139.703847"/>
      <trkpt lat="35.691774" lon="139.703985"/>
      <trkpt lat="35.691761" lon="139.704015"/>
      <trkpt lat="35.691757" lon="139.704024"/>
      <trkpt lat="35.691805" lon="139.704055"/>
      <trkpt lat="35.691793" lon="139.704082"/>
      <trkpt lat="35.691783" lon="139.704106"/>
      <trkpt lat="35.691876" lon="139.704167"/>
      <trkpt lat="35.691783" lon="139.704106"/>
      <trkpt lat="35.691632" lon="139.704008"/>
      <trkpt lat="35.691460" lon="139.703899"/>
      <trkpt lat="35.691430" lon="139.703881"/>
      <trkpt lat="35.691409" lon="139.703867"/>
      <trkpt lat="35.691395" lon="139.703898"/>
      <trkpt lat="35.691237" lon="139.704279"/>
      <trkpt lat="35.691029" lon="139.704738"/>
      <trkpt lat="35.691047" lon="139.704803"/>
      <trkpt lat="35.691072" lon="139.704892"/>
      <trkpt lat="35.691069" lon="139.704900"/>
      <trkpt lat="35.691052" lon="139.704943"/>
      <trkpt lat="35.691024" lon="139.705014"/>
      <trkpt lat="35.690999" lon="139.705076"/>
      <trkpt lat="35.690995" lon="139.705086"/>
      <trkpt lat="35.690954" lon="139.705062"/>
      <trkpt lat="35.690861" lon="139.705095"/>
      <trkpt lat="35.690815" lon="139.705187"/>
      <trkpt lat="35.690767" lon="139.705289"/>
      <trkpt lat="35.690830" lon="139.705336"/>
      <trkpt lat="35.690717" lon="139.705265"/>
      <trkpt lat="35.690600" lon="139.705528"/>
      <trkpt lat="35.690825" lon="139.705683"/>
      <trkpt lat="35.690846" lon="139.705776"/>
      <trkpt lat="35.690879" lon="139.705798"/>
      <trkpt lat="35.690902" lon="139.705748"/>
      <trkpt lat="35.691025" lon="139.705480"/>
      <trkpt lat="35.691158" lon="139.705179"/>
      <trkpt lat="35.691072" lon="139.705130"/>
      <trkpt lat="35.690995" lon="139.705086"/>
      <trkpt lat="35.690954" lon="139.705062"/>
      <trkpt lat="35.690861" lon="139.705095"/>
      <trkpt lat="35.690815" lon="139.705187"/>
      <trkpt lat="35.690767" lon="139.705289"/>
      <trkpt lat="35.690626" lon="139.705582"/>
      <trkpt lat="35.690622" lon="139.705620"/>
      <trkpt lat="35.690603" lon="139.705659"/>
      <trkpt lat="35.690581" lon="139.705684"/>
      <trkpt lat="35.690530" lon="139.705797"/>
      <trkpt lat="35.690526" lon="139.705806"/>
      <trkpt lat="35.690403" lon="139.706073"/>
      <trkpt lat="35.690372" lon="139.706139"/>
      <trkpt lat="35.690345" lon="139.706202"/>
      <trkpt lat="35.690190" lon="139.706547"/>
      <trkpt lat="35.690186" lon="139.706611"/>
      <trkpt lat="35.690093" lon="139.706566"/>
      <trkpt lat="35.690014" lon="139.706527"/>
      <trkpt lat="35.689967" lon="139.706557"/>
      <trkpt lat="35.689941" lon="139.706578"/>
      <trkpt lat="35.689884" lon="139.706581"/>
      <trkpt lat="35.689865" lon="139.706627"/>
      <trkpt lat="35.689820" lon="139.706603"/>
      <trkpt lat="35.689775" lon="139.706580"/>
      <trkpt lat="35.689695" lon="139.706532"/>
      <trkpt lat="35.689552" lon="139.706425"/>
      <trkpt lat="35.689471" lon="139.706366"/>
      <trkpt lat="35.689362" lon="139.706518"/>
      <trkpt lat="35.689307" lon="139.706595"/>
      <trkpt lat="35.689281" lon="139.706575"/>
      <trkpt lat="35.689220" lon="139.706530"/>
      <trkpt lat="35.689187" lon="139.706507"/>
      <trkpt lat="35.689126" lon="139.706466"/>
      <trkpt lat="35.688971" lon="139.706901"/>
      <trkpt lat="35.688839" lon="139.707252"/>
      <trkpt lat="35.688790" lon="139.707430"/>
      <trkpt lat="35.688774" lon="139.707490"/>
      <trkpt lat="35.688647" lon="139.707809"/>
      <trkpt lat="35.688586" lon="139.707938"/>
      <trkpt lat="35.688534" lon="139.708067"/>
      <trkpt lat="35.688586" lon="139.707938"/>
      <trkpt lat="35.688647" lon="139.707809"/>
      <trkpt lat="35.688774" lon="139.707490"/>
      <trkpt lat="35.688790" lon="139.707430"/>
      <trkpt lat="35.688839" lon="139.707252"/>
      <trkpt lat="35.688971" lon="139.706901"/>
      <trkpt lat="35.689126" lon="139.706466"/>
      <trkpt lat="35.689033" lon="139.706406"/>
      <trkpt lat="35.689087" lon="139.706308"/>
      <trkpt lat="35.689173" lon="139.706152"/>
      <trkpt lat="35.689211" lon="139.706083"/>
      <trkpt lat="35.689270" lon="139.706077"/>
      <trkpt lat="35.689357" lon="139.705972"/>
      <trkpt lat="35.689482" lon="139.705715"/>
      <trkpt lat="35.689581" lon="139.705377"/>
      <trkpt lat="35.689656" lon="139.704878"/>
      <trkpt lat="35.689642" lon="139.704538"/>
      <trkpt lat="35.689166" lon="139.704619"/>
      <trkpt lat="35.689642" lon="139.704538"/>
      <trkpt lat="35.689745" lon="139.704533"/>
      <trkpt lat="35.689733" lon="139.704399"/>
      <trkpt lat="35.689725" lon="139.704297"/>
      <trkpt lat="35.689658" lon="139.704258"/>
      <trkpt lat="35.689612" lon="139.704191"/>
      <trkpt lat="35.689597" lon="139.704112"/>
      <trkpt lat="35.689599" lon="139.704076"/>
      <trkpt lat="35.689602" lon="139.703976"/>
      <trkpt lat="35.689605" lon="139.703903"/>
      <trkpt lat="35.689624" lon="139.703873"/>
      <trkpt lat="35.689596" lon="139.703854"/>
      <trkpt lat="35.689570" lon="139.703822"/>
      <trkpt lat="35.689544" lon="139.703847"/>
      <trkpt lat="35.689464" lon="139.703879"/>
      <trkpt lat="35.688299" lon="139.703071"/>
      <trkpt lat="35.688129" lon="139.702956"/>
      <trkpt lat="35.688034" lon="139.702886"/>
      <trkpt lat="35.687994" lon="139.702972"/>
      <trkpt lat="35.687956" lon="139.702952"/>
      <trkpt lat="35.687913" lon="139.702938"/>
      <trkpt lat="35.687869" lon="139.702933"/>
      <trkpt lat="35.687802" lon="139.702935"/>
      <trkpt lat="35.687605" lon="139.702982"/>
      <trkpt lat="35.687539" lon="139.702998"/>
      <trkpt lat="35.686930" lon="139.703183"/>
      <trkpt lat="35.686841" lon="139.703209"/>
      <trkpt lat="35.686822" lon="139.703112"/>
      <trkpt lat="35.686811" lon="139.703056"/>
      <trkpt lat="35.686524" lon="139.703143"/>
      <trkpt lat="35.686811" lon="139.703056"/>
      <trkpt lat="35.686896" lon="139.703030"/>
      <trkpt lat="35.687045" lon="139.702972"/>
      <trkpt lat="35.687104" lon="139.702957"/>
      <trkpt lat="35.687204" lon="139.702926"/>
      <trkpt lat="35.687257" lon="139.702909"/>
      <trkpt lat="35.687504" lon="139.702834"/>
      <trkpt lat="35.687719" lon="139.702768"/>
      <trkpt lat="35.687750" lon="139.702759"/>
      <trkpt lat="35.687863" lon="139.702703"/>
      <trkpt lat="35.688155" lon="139.702485"/>
      <trkpt lat="35.688420" lon="139.702382"/>
      <trkpt lat="35.689072" lon="139.702198"/>
      <trkpt lat="35.689245" lon="139.702145"/>
      <trkpt lat="35.689448" lon="139.702083"/>
      <trkpt lat="35.689565" lon="139.702037"/>
      <trkpt lat="35.689605" lon="139.702022"/>
      <trkpt lat="35.689571" lon="139.701808"/>
      <trkpt lat="35.689520" lon="139.701692"/>
      <trkpt lat="35.689495" lon="139.701544"/>
      <trkpt lat="35.689490" lon="139.701516"/>
      <trkpt lat="35.689522" lon="139.701509"/>
      <trkpt lat="35.689671" lon="139.701467"/>
      <trkpt lat="35.689636" lon="139.701267"/>
      <trkpt lat="35.689605" lon="139.701275"/>
      <trkpt lat="35.689602" lon="139.701258"/>
      <trkpt lat="35.689585" lon="139.701253"/>
      <trkpt lat="35.689599" lon="139.701240"/>
      <trkpt lat="35.689572" lon="139.701080"/>
      <trkpt lat="35.689555" lon="139.701074"/>
      <trkpt lat="35.689507" lon="139.701086"/>
      <trkpt lat="35.689555" lon="139.701074"/>
      <trkpt lat="35.689572" lon="139.701080"/>
      <trkpt lat="35.689563" lon="139.701029"/>
      <trkpt lat="35.689592" lon="139.701022"/>
      <trkpt lat="35.689548" lon="139.700775"/>
      <trkpt lat="35.689513" lon="139.700571"/>
      <trkpt lat="35.689485" lon="139.700416"/>
      <trkpt lat="35.689460" lon="139.700270"/>
      <trkpt lat="35.689421" lon="139.700278"/>
      <trkpt lat="35.689360" lon="139.700293"/>
      <trkpt lat="35.689269" lon="139.700316"/>
      <trkpt lat="35.689215" lon="139.700331"/>
      <trkpt lat="35.689168" lon="139.700067"/>
      <trkpt lat="35.689137" lon="139.699921"/>
      <trkpt lat="35.689125" lon="139.699878"/>
      <trkpt lat="35.689073" lon="139.699686"/>
      <trkpt lat="35.689067" lon="139.699666"/>
      <trkpt lat="35.689028" lon="139.699578"/>
      <trkpt lat="35.688879" lon="139.699247"/>
      <trkpt lat="35.688844" lon="139.699168"/>
      <trkpt lat="35.688864" lon="139.699060"/>
      <trkpt lat="35.688855" lon="139.699042"/>
      <trkpt lat="35.688816" lon="139.698956"/>
      <trkpt lat="35.688757" lon="139.698827"/>
      <trkpt lat="35.688729" lon="139.698766"/>
      <trkpt lat="35.688790" lon="139.698726"/>
      <trkpt lat="35.688896" lon="139.698704"/>
      <trkpt lat="35.689128" lon="139.698668"/>
      <trkpt lat="35.689353" lon="139.698631"/>
      <trkpt lat="35.689430" lon="139.698621"/>
      <trkpt lat="35.689414" lon="139.698121"/>
      <trkpt lat="35.689651" lon="139.698108"/>
      <trkpt lat="35.689737" lon="139.698103"/>
      <trkpt lat="35.689830" lon="139.698098"/>
      <trkpt lat="35.689982" lon="139.698088"/>
      <trkpt lat="35.690039" lon="139.698083"/>
      <trkpt lat="35.690098" lon="139.698078"/>
      <trkpt lat="35.690112" lon="139.698124"/>
      <trkpt lat="35.690233" lon="139.698249"/>
      <trkpt lat="35.690279" lon="139.698197"/>
      <trkpt lat="35.690321" lon="139.698182"/>
      <trkpt lat="35.690379" lon="139.698174"/>
      <trkpt lat="35.690962" lon="139.698131"/>
      <trkpt lat="35.690983" lon="139.698126"/>
      <trkpt lat="35.691005" lon="139.698113"/>
      <trkpt lat="35.691024" lon="139.698085"/>
      <trkpt lat="35.691035" lon="139.698046"/>
      <trkpt lat="35.691125" lon="139.698041"/>
      <trkpt lat="35.691266" lon="139.698033"/>
      <trkpt lat="35.691263" lon="139.697972"/>
      <trkpt lat="35.691258" lon="139.697882"/>
      <trkpt lat="35.691252" lon="139.697776"/>
      <trkpt lat="35.691241" lon="139.697599"/>
      <trkpt lat="35.691182" lon="139.696628"/>
      <trkpt lat="35.691222" lon="139.696625"/>
      <trkpt lat="35.691247" lon="139.696627"/>
      <trkpt lat="35.691300" lon="139.696650"/>
      <trkpt lat="35.691386" lon="139.696688"/>
      <trkpt lat="35.691213" lon="139.696685"/>
      <trkpt lat="35.691200" lon="139.696458"/>
      <trkpt lat="35.691182" lon="139.696260"/>
      <trkpt lat="35.691014" lon="139.694617"/>
      <trkpt lat="35.690993" lon="139.694570"/>
      <trkpt lat="35.690987" lon="139.694530"/>
      <trkpt lat="35.690957" lon="139.694355"/>
      <trkpt lat="35.690846" lon="139.694350"/>
      <trkpt lat="35.690675" lon="139.693271"/>
      <trkpt lat="35.690575" lon="139.693245"/>
      <trkpt lat="35.690447" lon="139.693274"/>
      <trkpt lat="35.690430" lon="139.693232"/>
      <trkpt lat="35.690418" lon="139.693152"/>
      <trkpt lat="35.690407" lon="139.693082"/>
      <trkpt lat="35.690331" lon="139.693100"/>
      <trkpt lat="35.690407" lon="139.693082"/>
      <trkpt lat="35.690418" lon="139.693152"/>
      <trkpt lat="35.690430" lon="139.693232"/>
      <trkpt lat="35.690447" lon="139.693274"/>
      <trkpt lat="35.690575" lon="139.693245"/>
      <trkpt lat="35.690675" lon="139.693271"/>
      <trkpt lat="35.690846" lon="139.694350"/>
      <trkpt lat="35.690779" lon="139.694424"/>
      <trkpt lat="35.690805" lon="139.694576"/>
      <trkpt lat="35.690814" lon="139.694641"/>
      <trkpt lat="35.690803" lon="139.694670"/>
      <trkpt lat="35.690932" lon="139.695828"/>
      <trkpt lat="35.690975" lon="139.696209"/>
      <trkpt lat="35.690994" lon="139.696388"/>
      <trkpt lat="35.691019" lon="139.696832"/>
      <trkpt lat="35.691072" lon="139.697817"/>
      <trkpt lat="35.691090" lon="139.698150"/>
      <trkpt lat="35.691091" lon="139.698169"/>
      <trkpt lat="35.690979" lon="139.698178"/>
      <trkpt lat="35.690953" lon="139.698218"/>
      <trkpt lat="35.690896" lon="139.698231"/>
      <trkpt lat="35.690939" lon="139.698877"/>
      <trkpt lat="35.690953" lon="139.698953"/>
      <trkpt lat="35.691002" lon="139.699048"/>
      <trkpt lat="35.691033" lon="139.699069"/>
      <trkpt lat="35.691115" lon="139.699127"/>
      <trkpt lat="35.691178" lon="139.699141"/>
      <trkpt lat="35.691389" lon="139.699189"/>
      <trkpt lat="35.691378" lon="139.699275"/>
      <trkpt lat="35.691334" lon="139.699616"/>
      <trkpt lat="35.691324" lon="139.699701"/>
      <trkpt lat="35.691312" lon="139.699796"/>
      <trkpt lat="35.691303" lon="139.699990"/>
      <trkpt lat="35.691325" lon="139.700168"/>
      <trkpt lat="35.691340" lon="139.700290"/>
      <trkpt lat="35.691396" lon="139.700747"/>
      <trkpt lat="35.691423" lon="139.700968"/>
      <trkpt lat="35.691437" lon="139.701095"/>
      <trkpt lat="35.691512" lon="139.701055"/>
      <trkpt lat="35.691753" lon="139.701024"/>
      <trkpt lat="35.691806" lon="139.701018"/>
      <trkpt lat="35.691845" lon="139.701013"/>
      <trkpt lat="35.691843" lon="139.700984"/>
      <trkpt lat="35.691829" lon="139.700826"/>
      <trkpt lat="35.691823" lon="139.700802"/>
      <trkpt lat="35.691817" lon="139.700782"/>
      <trkpt lat="35.691787" lon="139.700795"/>
      <trkpt lat="35.691817" lon="139.700782"/>
      <trkpt lat="35.691823" lon="139.700802"/>
      <trkpt lat="35.691829" lon="139.700826"/>
      <trkpt lat="35.691843" lon="139.700984"/>
      <trkpt lat="35.691845" lon="139.701013"/>
      <trkpt lat="35.691806" lon="139.701018"/>
      <trkpt lat="35.691814" lon="139.701112"/>
      <trkpt lat="35.691824" lon="139.701227"/>
      <trkpt lat="35.691839" lon="139.701251"/>
      <trkpt lat="35.691846" lon="139.701325"/>
      <trkpt lat="35.691864" lon="139.701533"/>
      <trkpt lat="35.691866" lon="139.701557"/>
      <trkpt lat="35.691881" lon="139.701577"/>
      <trkpt lat="35.691905" lon="139.701599"/>
      <trkpt lat="35.691927" lon="139.701614"/>
      <trkpt lat="35.691947" lon="139.701623"/>
      <trkpt lat="35.691968" lon="139.701630"/>
      <trkpt lat="35.691987" lon="139.701635"/>
      <trkpt lat="35.692005" lon="139.701637"/>
      <trkpt lat="35.692028" lon="139.701636"/>
      <trkpt lat="35.692047" lon="139.701632"/>
      <trkpt lat="35.692065" lon="139.701626"/>
      <trkpt lat="35.692082" lon="139.701616"/>
      <trkpt lat="35.692101" lon="139.701601"/>
      <trkpt lat="35.692145" lon="139.701607"/>
      <trkpt lat="35.692184" lon="139.701613"/>
      <trkpt lat="35.692261" lon="139.701623"/>
      <trkpt lat="35.692252" lon="139.701690"/>
      <trkpt lat="35.692389" lon="139.701744"/>
      <trkpt lat="35.692383" lon="139.701740"/>
      <trkpt lat="35.692290" lon="139.701946"/>
      <trkpt lat="35.692263" lon="139.702005"/>
      <trkpt lat="35.692327" lon="139.702038"/>
      <trkpt lat="35.692421" lon="139.702097"/>
      <trkpt lat="35.692520" lon="139.702158"/>
      <trkpt lat="35.692636" lon="139.702226"/>
      <trkpt lat="35.692677" lon="139.702250"/>
      <trkpt lat="35.692682" lon="139.702253"/>
      <trkpt lat="35.692715" lon="139.702273"/>
      <trkpt lat="35.692747" lon="139.702292"/>
      <trkpt lat="35.692752" lon="139.702295"/>
      <trkpt lat="35.692800" lon="139.702324"/>
      <trkpt lat="35.692942" lon="139.702410"/>
      <trkpt lat="35.693069" lon="139.702486"/>
      <trkpt lat="35.693151" lon="139.702516"/>
      <trkpt lat="35.693199" lon="139.702301"/>
      <trkpt lat="35.693224" lon="139.702310"/>
      <trkpt lat="35.693236" lon="139.702315"/>
      <trkpt lat="35.693239" lon="139.702301"/>
      <trkpt lat="35.693244" lon="139.702303"/>
      <trkpt lat="35.693308" lon="139.702325"/>
      <trkpt lat="35.693357" lon="139.702343"/>
      <trkpt lat="35.693379" lon="139.702350"/>
      <trkpt lat="35.693431" lon="139.702368"/>
      <trkpt lat="35.693500" lon="139.702392"/>
      <trkpt lat="35.693508" lon="139.702395"/>
      <trkpt lat="35.693534" lon="139.702420"/>
      <trkpt lat="35.693528" lon="139.702446"/>
      <trkpt lat="35.693489" lon="139.702622"/>
      <trkpt lat="35.693449" lon="139.702797"/>
      <trkpt lat="35.693434" lon="139.702808"/>
      <trkpt lat="35.693432" lon="139.702815"/>
      <trkpt lat="35.693424" lon="139.702848"/>
      <trkpt lat="35.693446" lon="139.702853"/>
      <trkpt lat="35.693463" lon="139.702862"/>
      <trkpt lat="35.693646" lon="139.702953"/>
      <trkpt lat="35.694054" lon="139.703160"/>
      <trkpt lat="35.694365" lon="139.703324"/>
      <trkpt lat="35.694338" lon="139.703425"/>
      <trkpt lat="35.694365" lon="139.703324"/>
      <trkpt lat="35.694054" lon="139.703160"/>
      <trkpt lat="35.693646" lon="139.702953"/>
      <trkpt lat="35.693463" lon="139.702862"/>
      <trkpt lat="35.693446" lon="139.702853"/>
      <trkpt lat="35.693424" lon="139.702848"/>
      <trkpt lat="35.693432" lon="139.702815"/>
      <trkpt lat="35.693434" lon="139.702808"/>
      <trkpt lat="35.693449" lon="139.702797"/>
      <trkpt lat="35.693489" lon="139.702622"/>
      <trkpt lat="35.693528" lon="139.702446"/>
      <trkpt lat="35.693534" lon="139.702420"/>
      <trkpt lat="35.693508" lon="139.702395"/>
      <trkpt lat="35.693500" lon="139.702392"/>
      <trkpt lat="35.693431" lon="139.702368"/>
      <trkpt lat="35.693379" lon="139.702350"/>
      <trkpt lat="35.693357" lon="139.702343"/>
      <trkpt lat="35.693308" lon="139.702325"/>
      <trkpt lat="35.693244" lon="139.702303"/>
      <trkpt lat="35.693239" lon="139.702301"/>
      <trkpt lat="35.693236" lon="139.702315"/>
      <trkpt lat="35.693224" lon="139.702310"/>
      <trkpt lat="35.693199" lon="139.702301"/>
      <trkpt lat="35.693151" lon="139.702516"/>
      <trkpt lat="35.693069" lon="139.702486"/>
      <trkpt lat="35.692942" lon="139.702410"/>
      <trkpt lat="35.692800" lon="139.702324"/>
      <trkpt lat="35.692752" lon="139.702295"/>
      <trkpt lat="35.692747" lon="139.702292"/>
      <trkpt lat="35.692715" lon="139.702273"/>
      <trkpt lat="35.692682" lon="139.702253"/>
      <trkpt lat="35.692677" lon="139.702250"/>
      <trkpt lat="35.692636" lon="139.702226"/>
      <trkpt lat="35.692520" lon="139.702158"/>
      <trkpt lat="35.692421" lon="139.702097"/>
      <trkpt lat="35.692327" lon="139.702038"/>
      <trkpt lat="35.692263" lon="139.702005"/>
      <trkpt lat="35.692290" lon="139.701946"/>
      <trkpt lat="35.692257" lon="139.701922"/>
      <trkpt lat="35.692252" lon="139.701919"/>
      <trkpt lat="35.692208" lon="139.701887"/>
      <trkpt lat="35.692166" lon="139.701857"/>
      <trkpt lat="35.692162" lon="139.701854"/>
      <trkpt lat="35.692131" lon="139.701833"/>
      <trkpt lat="35.692096" lon="139.701807"/>
      <trkpt lat="35.692062" lon="139.701818"/>
      <trkpt lat="35.691860" lon="139.701701"/>
      <trkpt lat="35.691844" lon="139.701673"/>
      <trkpt lat="35.691835" lon="139.701674"/>
      <trkpt lat="35.691829" lon="139.701675"/>
      <trkpt lat="35.691807" lon="139.701678"/>
      <trkpt lat="35.691704" lon="139.701953"/>
      <trkpt lat="35.691807" lon="139.701678"/>
      <trkpt lat="35.691829" lon="139.701675"/>
      <trkpt lat="35.691835" lon="139.701674"/>
      <trkpt lat="35.691844" lon="139.701673"/>
      <trkpt lat="35.691860" lon="139.701701"/>
      <trkpt lat="35.692062" lon="139.701818"/>
      <trkpt lat="35.692096" lon="139.701807"/>
      <trkpt lat="35.692131" lon="139.701833"/>
      <trkpt lat="35.692162" lon="139.701854"/>
      <trkpt lat="35.692166" lon="139.701857"/>
      <trkpt lat="35.692208" lon="139.701887"/>
      <trkpt lat="35.692252" lon="139.701919"/>
      <trkpt lat="35.692257" lon="139.701922"/>
      <trkpt lat="35.692290" lon="139.701946"/>
      <trkpt lat="35.692263" lon="139.702005"/>
      <trkpt lat="35.692236" lon="139.702061"/>
      <trkpt lat="35.692234" lon="139.702067"/>
      <trkpt lat="35.692223" lon="139.702091"/>
      <trkpt lat="35.692273" lon="139.702122"/>
      <trkpt lat="35.692290" lon="139.702133"/>
      <trkpt lat="35.692600" lon="139.702316"/>
      <trkpt lat="35.692681" lon="139.702364"/>
      <trkpt lat="35.692763" lon="139.702414"/>
      <trkpt lat="35.692787" lon="139.702428"/>
      <trkpt lat="35.692929" lon="139.702513"/>
      <trkpt lat="35.692892" lon="139.702602"/>
      <trkpt lat="35.692884" lon="139.702621"/>
      <trkpt lat="35.692877" lon="139.702639"/>
      <trkpt lat="35.692726" lon="139.702999"/>
      <trkpt lat="35.692724" lon="139.703005"/>
      <trkpt lat="35.692705" lon="139.703039"/>
      <trkpt lat="35.692684" lon="139.703090"/>
      <trkpt lat="35.692705" lon="139.703039"/>
      <trkpt lat="35.692724" lon="139.703005"/>
      <trkpt lat="35.692740" lon="139.703016"/>
      <trkpt lat="35.692745" lon="139.703019"/>
      <trkpt lat="35.692942" lon="139.703141"/>
      <trkpt lat="35.692986" lon="139.703151"/>
      <trkpt lat="35.693026" lon="139.703002"/>
      <trkpt lat="35.693032" lon="139.702978"/>
      <trkpt lat="35.693060" lon="139.702990"/>
      <trkpt lat="35.693053" lon="139.703014"/>
      <trkpt lat="35.693052" lon="139.703018"/>
      <trkpt lat="35.693053" lon="139.703014"/>
      <trkpt lat="35.693060" lon="139.702990"/>
      <trkpt lat="35.693032" lon="139.702978"/>
      <trkpt lat="35.693101" lon="139.702720"/>
      <trkpt lat="35.693114" lon="139.702670"/>
      <trkpt lat="35.693116" lon="139.702665"/>
      <trkpt lat="35.693125" lon="139.702629"/>
      <trkpt lat="35.693137" lon="139.702579"/>
      <trkpt lat="35.693138" lon="139.702574"/>
      <trkpt lat="35.693151" lon="139.702516"/>
      <trkpt lat="35.693199" lon="139.702301"/>
      <trkpt lat="35.693224" lon="139.702310"/>
      <trkpt lat="35.693236" lon="139.702315"/>
      <trkpt lat="35.693239" lon="139.702301"/>
      <trkpt lat="35.693244" lon="139.702303"/>
      <trkpt lat="35.693308" lon="139.702325"/>
      <trkpt lat="35.693357" lon="139.702343"/>
      <trkpt lat="35.693379" lon="139.702350"/>
      <trkpt lat="35.693431" lon="139.702368"/>
      <trkpt lat="35.693500" lon="139.702392"/>
      <trkpt lat="35.693508" lon="139.702395"/>
      <trkpt lat="35.693534" lon="139.702420"/>
      <trkpt lat="35.693529" lon="139.702390"/>
      <trkpt lat="35.693530" lon="139.702383"/>
      <trkpt lat="35.693541" lon="139.702337"/>
      <trkpt lat="35.693549" lon="139.702298"/>
      <trkpt lat="35.693551" lon="139.702291"/>
      <trkpt lat="35.693574" lon="139.702247"/>
      <trkpt lat="35.693609" lon="139.702091"/>
      <trkpt lat="35.693653" lon="139.701896"/>
      <trkpt lat="35.693684" lon="139.701758"/>
      <trkpt lat="35.693719" lon="139.701603"/>
      <trkpt lat="35.693728" lon="139.701563"/>
      <trkpt lat="35.693735" lon="139.701531"/>
      <trkpt lat="35.693763" lon="139.701540"/>
      <trkpt lat="35.694092" lon="139.701664"/>
      <trkpt lat="35.694035" lon="139.701905"/>
      <trkpt lat="35.693941" lon="139.702299"/>
      <trkpt lat="35.693891" lon="139.702509"/>
      <trkpt lat="35.693583" lon="139.702358"/>
      <trkpt lat="35.693578" lon="139.702356"/>
      <trkpt lat="35.693541" lon="139.702337"/>
      <trkpt lat="35.693530" lon="139.702383"/>
      <trkpt lat="35.693529" lon="139.702390"/>
      <trkpt lat="35.693534" lon="139.702420"/>
      <trkpt lat="35.693508" lon="139.702395"/>
      <trkpt lat="35.693500" lon="139.702392"/>
      <trkpt lat="35.693431" lon="139.702368"/>
      <trkpt lat="35.693379" lon="139.702350"/>
      <trkpt lat="35.693357" lon="139.702343"/>
      <trkpt lat="35.693308" lon="139.702325"/>
      <trkpt lat="35.693244" lon="139.702303"/>
      <trkpt lat="35.693239" lon="139.702301"/>
      <trkpt lat="35.693236" lon="139.702315"/>
      <trkpt lat="35.693224" lon="139.702310"/>
      <trkpt lat="35.693199" lon="139.702301"/>
      <trkpt lat="35.693151" lon="139.702516"/>
      <trkpt lat="35.693069" lon="139.702486"/>
      <trkpt lat="35.692942" lon="139.702410"/>
      <trkpt lat="35.692800" lon="139.702324"/>
      <trkpt lat="35.692752" lon="139.702295"/>
      <trkpt lat="35.692747" lon="139.702292"/>
      <trkpt lat="35.692715" lon="139.702273"/>
      <trkpt lat="35.692682" lon="139.702253"/>
      <trkpt lat="35.692677" lon="139.702250"/>
      <trkpt lat="35.692636" lon="139.702226"/>
      <trkpt lat="35.692520" lon="139.702158"/>
      <trkpt lat="35.692421" lon="139.702097"/>
      <trkpt lat="35.692327" lon="139.702038"/>
      <trkpt lat="35.692263" lon="139.702005"/>
      <trkpt lat="35.692290" lon="139.701946"/>
      <trkpt lat="35.692257" lon="139.701922"/>
      <trkpt lat="35.692252" lon="139.701919"/>
      <trkpt lat="35.692208" lon="139.701887"/>
      <trkpt lat="35.692166" lon="139.701857"/>
      <trkpt lat="35.692162" lon="139.701854"/>
      <trkpt lat="35.692131" lon="139.701833"/>
      <trkpt lat="35.692096" lon="139.701807"/>
      <trkpt lat="35.692062" lon="139.701818"/>
      <trkpt lat="35.691860" lon="139.701701"/>
      <trkpt lat="35.691844" lon="139.701673"/>
      <trkpt lat="35.691835" lon="139.701674"/>
      <trkpt lat="35.691829" lon="139.701675"/>
      <trkpt lat="35.691807" lon="139.701678"/>
      <trkpt lat="35.691786" lon="139.701681"/>
      <trkpt lat="35.691757" lon="139.701681"/>
      <trkpt lat="35.691760" lon="139.701648"/>
      <trkpt lat="35.691727" lon="139.701637"/>
      <trkpt lat="35.691661" lon="139.701646"/>
      <trkpt lat="35.691587" lon="139.701656"/>
      <trkpt lat="35.691564" lon="139.701648"/>
      <trkpt lat="35.691562" lon="139.701629"/>
      <trkpt lat="35.691557" lon="139.701576"/>
      <trkpt lat="35.691539" lon="139.701368"/>
      <trkpt lat="35.691028" lon="139.701440"/>
      <trkpt lat="35.691018" lon="139.701334"/>
      <trkpt lat="35.691019" lon="139.701290"/>
      <trkpt lat="35.690872" lon="139.701312"/>
      <trkpt lat="35.690869" lon="139.701289"/>
      <trkpt lat="35.690841" lon="139.701238"/>
      <trkpt lat="35.690831" lon="139.701140"/>
      <trkpt lat="35.690813" lon="139.701087"/>
      <trkpt lat="35.690807" lon="139.701012"/>
      <trkpt lat="35.690804" lon="139.700976"/>
      <trkpt lat="35.690751" lon="139.700983"/>
      <trkpt lat="35.690746" lon="139.700938"/>
      <trkpt lat="35.690687" lon="139.700947"/>
      <trkpt lat="35.690746" lon="139.700938"/>
      <trkpt lat="35.690751" lon="139.700983"/>
      <trkpt lat="35.690804" lon="139.700976"/>
      <trkpt lat="35.690807" lon="139.701012"/>
      <trkpt lat="35.690813" lon="139.701087"/>
      <trkpt lat="35.690831" lon="139.701140"/>
      <trkpt lat="35.690841" lon="139.701238"/>
      <trkpt lat="35.690869" lon="139.701289"/>
      <trkpt lat="35.690872" lon="139.701312"/>
      <trkpt lat="35.691019" lon="139.701290"/>
      <trkpt lat="35.691018" lon="139.701334"/>
      <trkpt lat="35.691028" lon="139.701440"/>
      <trkpt lat="35.691047" lon="139.701646"/>
      <trkpt lat="35.691051" lon="139.701693"/>
      <trkpt lat="35.691053" lon="139.701712"/>
      <trkpt lat="35.691099" lon="139.701706"/>
      <trkpt lat="35.691123" lon="139.701708"/>
      <trkpt lat="35.691176" lon="139.701701"/>
      <trkpt lat="35.691211" lon="139.701696"/>
      <trkpt lat="35.691208" lon="139.701665"/>
      <trkpt lat="35.691208" lon="139.701659"/>
      <trkpt lat="35.691225" lon="139.701705"/>
      <trkpt lat="35.691269" lon="139.701699"/>
      <trkpt lat="35.691308" lon="139.701710"/>
      <trkpt lat="35.691344" lon="139.701705"/>
      <trkpt lat="35.691315" lon="139.701896"/>
      <trkpt lat="35.691251" lon="139.702312"/>
      <trkpt lat="35.691236" lon="139.702412"/>
      <trkpt lat="35.691216" lon="139.702511"/>
      <trkpt lat="35.691159" lon="139.702935"/>
    </trkseg>
  </trk>
</gpx>
