<?xml version="1.0" encoding="UTF-8"?>
<kml xmlns="http://www.opengis.net/kml/2.2">
  <Document>
    <name>Marcos da live — Baka Gaijin</name>
    <Style id="stop"><IconStyle><scale>0.7</scale>
      <Icon><href>https://maps.google.com/mapfiles/kml/paddle/red-circle.png</href></Icon>
    </IconStyle></Style>
    <Placemark>
      <name>1. null</name>
      <styleUrl>#stop</styleUrl>
      <description>Shinjuku Southern Terrace — Local fechado/interior — posição interpolada entre pontos de rua</description>
      <Point>
        <coordinates>139.699266,35.687095,0</coordinates>
      </Point>
    </Placemark>
    <Placemark>
      <name>2. Shinjuku Mylord</name>
      <styleUrl>#stop</styleUrl>
      <description>Shinjuku Southern Terrace — Local fechado/interior — posição interpolada entre pontos de rua</description>
      <Point>
        <coordinates>139.700036,35.688688,0</coordinates>
      </Point>
    </Placemark>
    <Placemark>
      <name>3. Não identificável</name>
      <styleUrl>#stop</styleUrl>
      <description>Não identificada, mas em área de passagem sob viaduto/estrut — Local fechado/interior — posição interpolada entre pontos de rua</description>
      <Point>
        <coordinates>139.701450,35.690100,0</coordinates>
      </Point>
    </Placemark>
    <Placemark>
      <name>4. Shinjuku Southern Terrace</name>
      <styleUrl>#stop</styleUrl>
      <description>Shinjuku Southern Terrace — A imagem mostra uma área externa pavimentada com um corrimão e vegetação à esquerda, e uma grande escadaria à direita, com barreiras de fila. A arquitetura moderna e a presença de uma grande escadaria são características da Shinjuku Southern Terrace, uma área de pedestres elevada perto da Estação Shinjuku. A frase do streamer 'vai estar tudo fechado ainda' sugere um horário matutino ou de baixa atividade, compatível com a ausência de pessoas e o aspecto de estabelecimentos fechados ao fundo. A localização é consistente com o contexto de Tóquio (Shinjuku/Kabukichō) e deslocamento a pé.</description>
      <Point>
        <coordinates>139.701906,35.685718,0</coordinates>
      </Point>
    </Placemark>
    <Placemark>
      <name>5. 32:05</name>
      <styleUrl>#stop</styleUrl>
      <description>Shinjuku-dori — Local fechado/interior — posição interpolada entre pontos de rua</description>
      <Point>
        <coordinates>139.701763,35.681224,0</coordinates>
      </Point>
    </Placemark>
    <Placemark>
      <name>6. Starbucks</name>
      <styleUrl>#stop</styleUrl>
      <description>Shibuya Crossing (cruzamento de ruas) — A imagem mostra claramente o famoso Shibuya Crossing em Tóquio, um dos cruzamentos mais movimentados do mundo. Os estabelecimentos visíveis como Starbucks e Tsutaya são marcos conhecidos neste local. A arquitetura dos edifícios e os anúncios em japonês confirmam a localização. A presença de ônibus e a faixa de pedestres em diagonal são características distintivas do cruzamento.</description>
      <Point>
        <coordinates>139.702233,35.682443,0</coordinates>
      </Point>
    </Placemark>
    <Placemark>
      <name>7. 鳥たまご (Tori Tamago)</name>
      <styleUrl>#stop</styleUrl>
      <description>Shinjuku Golden Gai G2 Street — A imagem mostra uma rua estreita e movimentada, típica de Kabukichō, Shinjuku, Tóquio. Os letreiros em japonês e a arquitetura dos edifícios são consistentes com a área. Os estabelecimentos '鳥たまご (Tori Tamago)', 'すず (Suzu)' e 'LARRY'S' são visíveis e podem ser localizados na Shinjuku Golden Gai G2 Street, uma área conhecida por seus bares e becos estreitos.</description>
      <Point>
        <coordinates>139.702785,35.686917,0</coordinates>
      </Point>
    </Placemark>
    <Placemark>
      <name>8. 47:05</name>
      <styleUrl>#stop</styleUrl>
      <description>Shinjuku Golden Gai G2 Street — Local fechado/interior — posição interpolada entre pontos de rua</description>
      <Point>
        <coordinates>139.703198,35.691400,0</coordinates>
      </Point>
    </Placemark>
    <Placemark>
      <name>9. Loja de conveniência/supermercado</name>
      <styleUrl>#stop</styleUrl>
      <description>Shinjuku Golden Gai G2 Street — Local fechado/interior — posição interpolada entre pontos de rua</description>
      <Point>
        <coordinates>139.702868,35.692848,0</coordinates>
      </Point>
    </Placemark>
    <Placemark>
      <name>10. Don Quijote (Donki)</name>
      <styleUrl>#stop</styleUrl>
      <description>Shinjuku Golden Gai G2 Street — Local fechado/interior — posição interpolada entre pontos de rua</description>
      <Point>
        <coordinates>139.702472,35.692749,0</coordinates>
      </Point>
    </Placemark>
    <Placemark>
      <name>11. 1:02:05</name>
      <styleUrl>#stop</styleUrl>
      <description>Shinjuku Southern Terrace (passagem) — Local fechado/interior — posição interpolada entre pontos de rua</description>
      <Point>
        <coordinates>139.702845,35.690949,0</coordinates>
      </Point>
    </Placemark>
    <Placemark>
      <name>12. 1:07:05</name>
      <styleUrl>#stop</styleUrl>
      <description>Shinjuku-dori — Local fechado/interior — posição interpolada entre pontos de rua</description>
      <Point>
        <coordinates>139.703367,35.689967,0</coordinates>
      </Point>
    </Placemark>
    <Placemark>
      <name>13. Tokyu Hands</name>
      <styleUrl>#stop</styleUrl>
      <description>Shinjuku-dori — A imagem mostra a entrada de uma loja Tokyu Hands, identificada pelo logotipo 'HANDS 50th'. A placa 'TOKYU SECURITY' também é visível. A arquitetura e o contexto urbano são consistentes com Tóquio, especificamente a área de Shinjuku, onde há uma Tokyu Hands na Shinjuku-dori. A coordenada corresponde à localização da Tokyu Hands Shinjuku.</description>
      <Point>
        <coordinates>139.702890,35.690830,0</coordinates>
      </Point>
    </Placemark>
    <Placemark>
      <name>14. 1:17:05</name>
      <styleUrl>#stop</styleUrl>
      <description>Shinjuku-dori — Local fechado/interior — posição interpolada entre pontos de rua</description>
      <Point>
        <coordinates>139.703294,35.691791,0</coordinates>
      </Point>
    </Placemark>
    <Placemark>
      <name>15. Isetan Shinjuku Store (伊勢丹新宿店)</name>
      <styleUrl>#stop</styleUrl>
      <description>Shinjuku-dori (新宿通り) — A imagem mostra uma rua larga com calçadas bem cuidadas e edifícios modernos, característicos de Tóquio. À direita, é possível ver a fachada do Isetan Shinjuku Store, um famoso departamento de lojas. À esquerda, há um edifício que se assemelha ao Shinjuku Marui Main Building. A presença de faixas de pedestres e a arquitetura confirmam a localização na Shinjuku-dori, uma das principais avenidas de Shinjuku.</description>
      <Point>
        <coordinates>139.704179,35.690505,0</coordinates>
      </Point>
    </Placemark>
    <Placemark>
      <name>16. FamilyMart</name>
      <styleUrl>#stop</styleUrl>
      <description>Shinjuku-dori — A imagem mostra um cruzamento com faixas de pedestres típicas do Japão. À esquerda, é visível uma loja FamilyMart e um letreiro com 'SFNSE'. O tipo de ônibus e a arquitetura dos edifícios são consistentes com Tóquio. A localização específica é o cruzamento da Shinjuku-dori com a Meiji-dori, próximo à estação de Shinjuku, uma área conhecida por ter várias lojas FamilyMart e edifícios comerciais.</description>
      <Point>
        <coordinates>139.700268,35.690951,0</coordinates>
      </Point>
    </Placemark>
    <Placemark>
      <name>17. Não identificada (beco)</name>
      <styleUrl>#stop</styleUrl>
      <description>Não identificada (beco) — A imagem mostra um beco estreito, típico de Kabukichō, Shinjuku, Tóquio. Há placas de 'No Smoking' em japonês e um cone de trânsito azul e branco, comum no Japão. A arquitetura dos edifícios e a fiação exposta também são características da região. A coordenada é uma estimativa para um beco genérico em Kabukichō, dada a falta de identificadores específicos de rua ou estabelecimentos.</description>
      <Point>
        <coordinates>139.702105,35.693362,0</coordinates>
      </Point>
    </Placemark>
    <Placemark>
      <name>18. Taiyaki Kanda Daruma</name>
      <styleUrl>#stop</styleUrl>
      <description>Shinjuku-dori — A imagem mostra a rua Shinjuku-dori em Shinjuku, Tóquio. É possível identificar a loja 'Taiyaki Kanda Daruma' e uma loteria 'Mega Big' com a fachada verde. A arquitetura dos edifícios e os veículos são típicos do Japão. A coordenada foi estimada com base na localização desses estabelecimentos na Shinjuku-dori, compatível com o deslocamento a pé.</description>
      <Point>
        <coordinates>139.702863,35.690737,0</coordinates>
      </Point>
    </Placemark>
    <Placemark>
      <name>19. METRO PA</name>
      <styleUrl>#stop</styleUrl>
      <description>Kabukicho — A imagem mostra um letreiro azul com as palavras 'METRO PA'. Embora não seja um nome completo, a combinação de 'Metro' e 'Pa' é um indicativo forte de uma estação de metrô ou um estacionamento subterrâneo. Dada a informação de que o streamer está em Shinjuku/Kabukichō, Tóquio, e se deslocando a pé, a presença de uma entrada de metrô é consistente com a área. A arquitetura moderna ao fundo também se alinha com a paisagem urbana de Tóquio. A coordenada estimada é próxima à entrada do metrô na área de Kabukicho.</description>
      <Point>
        <coordinates>139.702823,35.691725,0</coordinates>
      </Point>
    </Placemark>
    <Placemark>
      <name>20. FamilyMart</name>
      <styleUrl>#stop</styleUrl>
      <description>Meiji-dori (明治通り) — A imagem mostra uma rua urbana com arquitetura moderna e placas em japonês, confirmando Tóquio. O letreiro 'FamilyMart' é claramente visível ao fundo. A arquitetura de vidro de um prédio à direita sugere uma loja de departamento ou grande varejista, possivelmente uma UNIQLO. A presença de uma faixa de pedestres e a disposição da calçada e da rua são consistentes com a Meiji-dori na área de Shinjuku, próximo à estação de Shinjuku-sanchome, onde há um FamilyMart e grandes lojas.</description>
      <Point>
        <coordinates>139.703905,35.692839,0</coordinates>
      </Point>
    </Placemark>
    <Placemark>
      <name>21. ZENITH</name>
      <styleUrl>#stop</styleUrl>
      <description>Shinjuku-dori — A imagem mostra uma rua larga com arquitetura moderna e placas em japonês, características de Tóquio. O edifício à esquerda exibe o logotipo 'ZENITH', uma marca de relógios de luxo. A arquitetura do prédio à esquerda, com sua fachada de vidro facetada, é muito semelhante ao edifício da Zenith em Shinjuku. Ao fundo, uma placa grande com caracteres japoneses e o que parece ser o logotipo da 'BIC CAMERA' (uma grande loja de eletrônicos japonesa) reforça a localização em Shinjuku, próximo à estação. A coordenada estimada corresponde a um ponto na Shinjuku-dori, em frente à loja Zenith.</description>
      <Point>
        <coordinates>139.703648,35.688349,0</coordinates>
      </Point>
    </Placemark>
    <Placemark>
      <name>22. FamilyMart</name>
      <styleUrl>#stop</styleUrl>
      <description>Shinjuku-dori — A placa de 'PRIVATE AREA NO ENTRY' é um indicativo comum em áreas de construção ou acesso restrito no Japão. Ao fundo, é possível ver um letreiro vermelho que se assemelha ao logotipo da FamilyMart, uma rede de lojas de conveniência muito presente em Tóquio. A arquitetura dos prédios e o estilo da rua são consistentes com a área de Shinjuku. A coordenada foi estimada com base na localização de uma FamilyMart na Shinjuku-dori, próxima a Kabukichō, que corresponde ao ambiente e contexto da live.</description>
      <Point>
        <coordinates>139.700059,35.689812,0</coordinates>
      </Point>
    </Placemark>
    <Placemark>
      <name>23. MIZUHO</name>
      <styleUrl>#stop</styleUrl>
      <description>Kabukicho — A imagem mostra a fachada de um banco Mizuho, uma instituição financeira japonesa comum em Tóquio. A arquitetura e as marcações táteis amarelas no chão são características de ruas japonesas. A área de Kabukichō em Shinjuku é conhecida por ter muitos estabelecimentos comerciais e bancos, e a presença do Mizuho é um forte indicativo. A coordenada é uma estimativa para a área de Kabukichō onde o banco Mizuho é visível.</description>
      <Point>
        <coordinates>139.701753,35.693320,0</coordinates>
      </Point>
    </Placemark>
    <Placemark>
      <name>24. MARIE (loja rosa)</name>
      <styleUrl>#stop</styleUrl>
      <description>Kabukicho — A arquitetura das construções e a presença de postes de energia com fiação aérea são características comuns em Tóquio. A loja rosa com o nome 'MARIE' (parcialmente visível) e o estilo da rua estreita com calçadas elevadas são consistentes com a área de Kabukichō, Shinjuku. A coordenada estimada é para uma rua lateral próxima à área principal de Kabukichō, compatível com o deslocamento a pé.</description>
      <Point>
        <coordinates>139.702534,35.693876,0</coordinates>
      </Point>
    </Placemark>
    <Placemark>
      <name>25. 2:12:05</name>
      <styleUrl>#stop</styleUrl>
      <description>Kabukicho — Local fechado/interior — posição interpolada entre pontos de rua</description>
      <Point>
        <coordinates>139.702535,35.691835,0</coordinates>
      </Point>
    </Placemark>
    <Placemark>
      <name>26. Coca-Cola</name>
      <styleUrl>#stop</styleUrl>
      <description>Shinjuku-dori — A imagem mostra uma rua movimentada com características urbanas japonesas, incluindo um caminhão da Coca-Cola com design específico para o Japão e um caminhão de lixo com o logotipo 'KIKAN'. A arquitetura dos edifícios e a sinalização de trânsito são consistentes com Tóquio. A localização foi estimada na Shinjuku-dori, uma rua principal em Shinjuku, Tóquio, que corresponde ao ambiente e ao contexto de Kabukichō.</description>
      <Point>
        <coordinates>139.703367,35.692573,0</coordinates>
      </Point>
    </Placemark>
    <Placemark>
      <name>27. SWEET PALACE</name>
      <styleUrl>#stop</styleUrl>
      <description>Shinjuku Promenade Park — A imagem mostra uma rua pavimentada com tijolos, típica de áreas comerciais no Japão. O letreiro 'SWEET PALACE' é visível, e a arquitetura do prédio ao fundo, com a placa 'AFTER HOURS' e os caracteres japoneses, confirma a localização em Tóquio. A presença de um expositor de produtos Pokémon na calçada é comum em áreas de grande movimento como Shinjuku. A coordenada é compatível com o Shinjuku Promenade Park, uma área de pedestres com estabelecimentos comerciais.</description>
      <Point>
        <coordinates>139.702967,35.689805,0</coordinates>
      </Point>
    </Placemark>
    <Placemark>
      <name>28. Shinjuku-dori (新宿通り)</name>
      <styleUrl>#stop</styleUrl>
      <description>Shinjuku-dori (新宿通り) — A imagem mostra uma calçada com piso tátil amarelo, comum no Japão, e pessoas com guarda-chuvas transparentes, também característicos. A arquitetura do prédio à esquerda, com grandes janelas e o estilo geral da rua, é consistente com áreas comerciais de Tóquio. Embora não haja nomes de estabelecimentos claramente visíveis, a localização em Shinjuku/Kabukichō, conforme o contexto fornecido, e a aparência da rua, sugerem a Shinjuku-dori, uma das principais vias da região. A coordenada estimada corresponde a um trecho dessa rua.</description>
      <Point>
        <coordinates>139.703129,35.685324,0</coordinates>
      </Point>
    </Placemark>
    <Placemark>
      <name>29. Não identificável com precisão, mas dentro da área do Santuá</name>
      <styleUrl>#stop</styleUrl>
      <description>Não identificável com precisão, mas dentro da área do Santuá — A imagem mostra um ambiente arborizado com uma estrutura de madeira tradicional japonesa, que se assemelha a um torii ou parte de um templo/santuário. A arquitetura e a vegetação são consistentes com a entrada ou os arredores do Santuário Meiji Jingu em Tóquio, que é uma grande área verde. A presença de pilares de madeira e a pavimentação de cascalho são características comuns do local. A coordenada fornecida é uma estimativa para a área de entrada do santuário.</description>
      <Point>
        <coordinates>139.705702,35.681398,0</coordinates>
      </Point>
    </Placemark>
    <Placemark>
      <name>30. 2:37:05</name>
      <styleUrl>#stop</styleUrl>
      <description>Meiji Jingu Gaien (外苑) — Local fechado/interior — posição interpolada entre pontos de rua</description>
      <Point>
        <coordinates>139.709904,35.678490,0</coordinates>
      </Point>
    </Placemark>
  </Document>
</kml>