<?xml version="1.0" encoding="UTF-8"?>
<gpx version="1.1" creator="bakalgaijin-mapa (rota a pé)" xmlns="http://www.topografix.com/GPX/1/1">
  <metadata><name>Rota a pé — Baka Gaijin</name></metadata>
  <wpt lat="35.687095" lon="139.699266">
    <name>0:12:05 — null</name>
    <desc>Shinjuku Southern Terrace</desc>
  </wpt>
  <wpt lat="35.688688" lon="139.700036">
    <name>0:17:05 — Shinjuku Mylord</name>
    <desc>Shinjuku Southern Terrace</desc>
  </wpt>
  <wpt lat="35.690100" lon="139.701450">
    <name>0:22:05 — Não identificável</name>
    <desc>Não identificada, mas em área de passagem sob viaduto/estrut</desc>
  </wpt>
  <wpt lat="35.683282" lon="139.701589">
    <name>0:27:05 — Shinjuku Southern Terrace</name>
    <desc>Shinjuku Southern Terrace</desc>
  </wpt>
  <wpt lat="35.680890" lon="139.701769">
    <name>0:32:05 — 32:05</name>
    <desc>Shinjuku-dori</desc>
  </wpt>
  <wpt lat="35.684306" lon="139.702475">
    <name>0:37:05 — Starbucks</name>
    <desc>Shibuya Crossing (cruzamento de ruas) · Starbucks · Tsutaya · Aoba Clinic · Gast · Hinamitsu · Salonpas</desc>
  </wpt>
  <wpt lat="35.693045" lon="139.703660">
    <name>0:42:05 — 鳥たまご (Tori Tamago)</name>
    <desc>Shinjuku Golden Gai G2 Street · 鳥たまご (Tori Tamago) · すず (Suzu) · LARRY'S</desc>
  </wpt>
  <wpt lat="35.692946" lon="139.703264">
    <name>0:47:05 — 47:05</name>
    <desc>Shinjuku Golden Gai G2 Street</desc>
  </wpt>
  <wpt lat="35.692848" lon="139.702868">
    <name>0:52:05 — Loja de conveniência/supermercado</name>
    <desc>Shinjuku Golden Gai G2 Street</desc>
  </wpt>
  <wpt lat="35.692749" lon="139.702472">
    <name>0:57:05 — Don Quijote (Donki)</name>
    <desc>Shinjuku Golden Gai G2 Street</desc>
  </wpt>
  <wpt lat="35.690949" lon="139.702845">
    <name>1:02:05 — 1:02:05</name>
    <desc>Shinjuku Southern Terrace (passagem)</desc>
  </wpt>
  <wpt lat="35.689967" lon="139.703367">
    <name>1:07:05 — 1:07:05</name>
    <desc>Shinjuku-dori</desc>
  </wpt>
  <wpt lat="35.690830" lon="139.702890">
    <name>1:12:05 — Tokyu Hands</name>
    <desc>Shinjuku-dori · Tokyu Hands</desc>
  </wpt>
  <wpt lat="35.691791" lon="139.703294">
    <name>1:17:05 — 1:17:05</name>
    <desc>Shinjuku-dori</desc>
  </wpt>
  <wpt lat="35.690505" lon="139.704179">
    <name>1:22:05 — Isetan Shinjuku Store (伊勢丹新宿店)</name>
    <desc>Shinjuku-dori (新宿通り) · Isetan Shinjuku Store (伊勢丹新宿店) · Shinjuku Marui Main Building (新宿マルイ本館)</desc>
  </wpt>
  <wpt lat="35.690951" lon="139.700268">
    <name>1:27:05 — FamilyMart</name>
    <desc>Shinjuku-dori · FamilyMart · SFNSE</desc>
  </wpt>
  <wpt lat="35.693362" lon="139.702105">
    <name>1:32:05 — Não identificada (beco)</name>
    <desc>Não identificada (beco)</desc>
  </wpt>
  <wpt lat="35.690850" lon="139.702450">
    <name>1:37:05 — Taiyaki Kanda Daruma</name>
    <desc>Shinjuku-dori · Taiyaki Kanda Daruma · Mega Big (Loteria) · Shinjuku Clinic</desc>
  </wpt>
  <wpt lat="35.691725" lon="139.702823">
    <name>1:42:05 — METRO PA</name>
    <desc>Kabukicho · METRO PA</desc>
  </wpt>
  <wpt lat="35.693334" lon="139.704053">
    <name>1:47:05 — FamilyMart</name>
    <desc>Meiji-dori (明治通り) · FamilyMart · UNIQLO (possível)</desc>
  </wpt>
  <wpt lat="35.686643" lon="139.703594">
    <name>1:52:05 — ZENITH</name>
    <desc>Shinjuku-dori · ZENITH · BIC CAMERA (possível)</desc>
  </wpt>
  <wpt lat="35.690287" lon="139.699397">
    <name>1:57:05 — FamilyMart</name>
    <desc>Shinjuku-dori · FamilyMart</desc>
  </wpt>
  <wpt lat="35.693512" lon="139.701914">
    <name>2:02:05 — MIZUHO</name>
    <desc>Kabukicho · MIZUHO</desc>
  </wpt>
  <wpt lat="35.693876" lon="139.702534">
    <name>2:07:05 — MARIE (loja rosa)</name>
    <desc>Kabukicho · MARIE (loja rosa)</desc>
  </wpt>
  <wpt lat="35.691835" lon="139.702535">
    <name>2:12:05 — 2:12:05</name>
    <desc>Kabukicho</desc>
  </wpt>
  <wpt lat="35.692573" lon="139.703367">
    <name>2:17:05 — Coca-Cola</name>
    <desc>Shinjuku-dori · Coca-Cola</desc>
  </wpt>
  <wpt lat="35.688862" lon="139.703116">
    <name>2:22:05 — SWEET PALACE</name>
    <desc>Shinjuku Promenade Park · SWEET PALACE · AFTER HOURS</desc>
  </wpt>
  <wpt lat="35.681709" lon="139.703543">
    <name>2:27:05 — Shinjuku-dori (新宿通り)</name>
    <desc>Shinjuku-dori (新宿通り)</desc>
  </wpt>
  <wpt lat="35.678403" lon="139.708570">
    <name>2:32:05 — Não identificável com precisão, mas dentro da área do Santuá</name>
    <desc>Não identificável com precisão, mas dentro da área do Santuá</desc>
  </wpt>
  <wpt lat="35.676900" lon="139.712600">
    <name>2:37:05 — 2:37:05</name>
    <desc>Meiji Jingu Gaien (外苑)</desc>
  </wpt>
  <trk>
    <name>Rota a pé (sem voltas)</name>
    <trkseg>
      <trkpt lat="35.687042" lon="139.699404"/>
      <trkpt lat="35.687055" lon="139.699458"/>
      <trkpt lat="35.687135" lon="139.699424"/>
      <trkpt lat="35.687692" lon="139.699241"/>
      <trkpt lat="35.688095" lon="139.699096"/>
      <trkpt lat="35.688155" lon="139.699073"/>
      <trkpt lat="35.688250" lon="139.699036"/>
      <trkpt lat="35.688337" lon="139.698993"/>
      <trkpt lat="35.688398" lon="139.698949"/>
      <trkpt lat="35.688424" lon="139.699036"/>
      <trkpt lat="35.688450" lon="139.699115"/>
      <trkpt lat="35.688498" lon="139.699123"/>
      <trkpt lat="35.688543" lon="139.699225"/>
      <trkpt lat="35.688701" lon="139.699599"/>
      <trkpt lat="35.688753" lon="139.699719"/>
      <trkpt lat="35.688772" lon="139.699763"/>
      <trkpt lat="35.688815" lon="139.699921"/>
      <trkpt lat="35.688728" lon="139.699943"/>
      <trkpt lat="35.688722" lon="139.699915"/>
      <trkpt lat="35.688712" lon="139.699919"/>
      <trkpt lat="35.688564" lon="139.699974"/>
      <trkpt lat="35.688566" lon="139.699985"/>
      <trkpt lat="35.688569" lon="139.699996"/>
      <trkpt lat="35.688572" lon="139.700006"/>
      <trkpt lat="35.688486" lon="139.700037"/>
      <trkpt lat="35.688475" lon="139.700121"/>
      <trkpt lat="35.688688" lon="139.700075"/>
      <trkpt lat="35.688749" lon="139.699964"/>
      <trkpt lat="35.688747" lon="139.699943"/>
      <trkpt lat="35.688744" lon="139.699909"/>
      <trkpt lat="35.688730" lon="139.699846"/>
      <trkpt lat="35.688706" lon="139.699854"/>
      <trkpt lat="35.688722" lon="139.699915"/>
      <trkpt lat="35.688728" lon="139.699943"/>
      <trkpt lat="35.688815" lon="139.699921"/>
      <trkpt lat="35.688851" lon="139.700055"/>
      <trkpt lat="35.688869" lon="139.700138"/>
      <trkpt lat="35.688891" lon="139.700249"/>
      <trkpt lat="35.688921" lon="139.700403"/>
      <trkpt lat="35.688955" lon="139.700395"/>
      <trkpt lat="35.689153" lon="139.700347"/>
      <trkpt lat="35.689215" lon="139.700331"/>
      <trkpt lat="35.689410" lon="139.701441"/>
      <trkpt lat="35.689427" lon="139.701532"/>
      <trkpt lat="35.689490" lon="139.701516"/>
      <trkpt lat="35.689495" lon="139.701544"/>
      <trkpt lat="35.689520" lon="139.701692"/>
      <trkpt lat="35.689571" lon="139.701808"/>
      <trkpt lat="35.689638" lon="139.701815"/>
      <trkpt lat="35.689746" lon="139.701827"/>
      <trkpt lat="35.689780" lon="139.701812"/>
      <trkpt lat="35.689835" lon="139.701786"/>
      <trkpt lat="35.690157" lon="139.701640"/>
      <trkpt lat="35.689835" lon="139.701786"/>
      <trkpt lat="35.689780" lon="139.701812"/>
      <trkpt lat="35.689746" lon="139.701827"/>
      <trkpt lat="35.689638" lon="139.701815"/>
      <trkpt lat="35.689571" lon="139.701808"/>
      <trkpt lat="35.689520" lon="139.701692"/>
      <trkpt lat="35.689495" lon="139.701544"/>
      <trkpt lat="35.689490" lon="139.701516"/>
      <trkpt lat="35.689427" lon="139.701532"/>
      <trkpt lat="35.689410" lon="139.701441"/>
      <trkpt lat="35.689215" lon="139.700331"/>
      <trkpt lat="35.689153" lon="139.700347"/>
      <trkpt lat="35.688955" lon="139.700395"/>
      <trkpt lat="35.688921" lon="139.700403"/>
      <trkpt lat="35.688891" lon="139.700249"/>
      <trkpt lat="35.688869" lon="139.700138"/>
      <trkpt lat="35.688851" lon="139.700055"/>
      <trkpt lat="35.688815" lon="139.699921"/>
      <trkpt lat="35.688772" lon="139.699763"/>
      <trkpt lat="35.688753" lon="139.699719"/>
      <trkpt lat="35.688701" lon="139.699599"/>
      <trkpt lat="35.688543" lon="139.699225"/>
      <trkpt lat="35.688498" lon="139.699123"/>
      <trkpt lat="35.688450" lon="139.699115"/>
      <trkpt lat="35.687150" lon="139.699589"/>
      <trkpt lat="35.687102" lon="139.699613"/>
      <trkpt lat="35.686941" lon="139.699690"/>
      <trkpt lat="35.686770" lon="139.699774"/>
      <trkpt lat="35.686606" lon="139.699888"/>
      <trkpt lat="35.686334" lon="139.700096"/>
      <trkpt lat="35.686009" lon="139.700486"/>
      <trkpt lat="35.685946" lon="139.700581"/>
      <trkpt lat="35.685913" lon="139.700626"/>
      <trkpt lat="35.685885" lon="139.700648"/>
      <trkpt lat="35.685863" lon="139.700653"/>
      <trkpt lat="35.685799" lon="139.700724"/>
      <trkpt lat="35.685753" lon="139.700775"/>
      <trkpt lat="35.685720" lon="139.700813"/>
      <trkpt lat="35.685681" lon="139.700855"/>
      <trkpt lat="35.685637" lon="139.700905"/>
      <trkpt lat="35.685638" lon="139.700934"/>
      <trkpt lat="35.685484" lon="139.701105"/>
      <trkpt lat="35.685385" lon="139.701156"/>
      <trkpt lat="35.685226" lon="139.701220"/>
      <trkpt lat="35.684754" lon="139.701370"/>
      <trkpt lat="35.684737" lon="139.701272"/>
      <trkpt lat="35.684721" lon="139.701187"/>
      <trkpt lat="35.684513" lon="139.701260"/>
      <trkpt lat="35.683899" lon="139.701428"/>
      <trkpt lat="35.683596" lon="139.701507"/>
      <trkpt lat="35.683570" lon="139.701514"/>
      <trkpt lat="35.683543" lon="139.701503"/>
      <trkpt lat="35.683537" lon="139.701487"/>
      <trkpt lat="35.683454" lon="139.701504"/>
      <trkpt lat="35.683377" lon="139.701519"/>
      <trkpt lat="35.683301" lon="139.701572"/>
      <trkpt lat="35.683270" lon="139.701580"/>
      <trkpt lat="35.683283" lon="139.701658"/>
      <trkpt lat="35.683176" lon="139.701683"/>
      <trkpt lat="35.682861" lon="139.701752"/>
      <trkpt lat="35.682754" lon="139.701775"/>
      <trkpt lat="35.682647" lon="139.701805"/>
      <trkpt lat="35.682498" lon="139.701846"/>
      <trkpt lat="35.681772" lon="139.702101"/>
      <trkpt lat="35.681420" lon="139.702216"/>
      <trkpt lat="35.681405" lon="139.702153"/>
      <trkpt lat="35.681341" lon="139.702177"/>
      <trkpt lat="35.681397" lon="139.701837"/>
      <trkpt lat="35.680977" lon="139.701763"/>
      <trkpt lat="35.680895" lon="139.701741"/>
      <trkpt lat="35.680977" lon="139.701763"/>
      <trkpt lat="35.681397" lon="139.701837"/>
      <trkpt lat="35.681341" lon="139.702177"/>
      <trkpt lat="35.681405" lon="139.702153"/>
      <trkpt lat="35.681420" lon="139.702216"/>
      <trkpt lat="35.681772" lon="139.702101"/>
      <trkpt lat="35.681826" lon="139.702139"/>
      <trkpt lat="35.682556" lon="139.701893"/>
      <trkpt lat="35.682644" lon="139.701961"/>
      <trkpt lat="35.682665" lon="139.701977"/>
      <trkpt lat="35.682775" lon="139.702061"/>
      <trkpt lat="35.682802" lon="139.702092"/>
      <trkpt lat="35.682825" lon="139.702118"/>
      <trkpt lat="35.682843" lon="139.702130"/>
      <trkpt lat="35.682865" lon="139.702164"/>
      <trkpt lat="35.682902" lon="139.702136"/>
      <trkpt lat="35.682926" lon="139.702184"/>
      <trkpt lat="35.682934" lon="139.702213"/>
      <trkpt lat="35.682940" lon="139.702243"/>
      <trkpt lat="35.683014" lon="139.702667"/>
      <trkpt lat="35.683017" lon="139.702684"/>
      <trkpt lat="35.683022" lon="139.702710"/>
      <trkpt lat="35.683027" lon="139.702730"/>
      <trkpt lat="35.683038" lon="139.702785"/>
      <trkpt lat="35.683047" lon="139.702827"/>
      <trkpt lat="35.683061" lon="139.702871"/>
      <trkpt lat="35.683082" lon="139.702902"/>
      <trkpt lat="35.683102" lon="139.702916"/>
      <trkpt lat="35.683127" lon="139.702927"/>
      <trkpt lat="35.683159" lon="139.702936"/>
      <trkpt lat="35.683197" lon="139.702938"/>
      <trkpt lat="35.683234" lon="139.702933"/>
      <trkpt lat="35.683323" lon="139.702908"/>
      <trkpt lat="35.683372" lon="139.702896"/>
      <trkpt lat="35.683428" lon="139.702880"/>
      <trkpt lat="35.683448" lon="139.702877"/>
      <trkpt lat="35.683472" lon="139.702876"/>
      <trkpt lat="35.683504" lon="139.702875"/>
      <trkpt lat="35.683539" lon="139.702878"/>
      <trkpt lat="35.683586" lon="139.702888"/>
      <trkpt lat="35.683623" lon="139.702899"/>
      <trkpt lat="35.683662" lon="139.702915"/>
      <trkpt lat="35.683700" lon="139.702941"/>
      <trkpt lat="35.683731" lon="139.702902"/>
      <trkpt lat="35.683687" lon="139.702860"/>
      <trkpt lat="35.683668" lon="139.702839"/>
      <trkpt lat="35.683723" lon="139.702824"/>
      <trkpt lat="35.684107" lon="139.702728"/>
      <trkpt lat="35.684340" lon="139.702667"/>
      <trkpt lat="35.684799" lon="139.702546"/>
      <trkpt lat="35.685223" lon="139.702325"/>
      <trkpt lat="35.685255" lon="139.702315"/>
      <trkpt lat="35.685287" lon="139.702306"/>
      <trkpt lat="35.685324" lon="139.702296"/>
      <trkpt lat="35.685490" lon="139.702264"/>
      <trkpt lat="35.686140" lon="139.702110"/>
      <trkpt lat="35.686194" lon="139.702101"/>
      <trkpt lat="35.686233" lon="139.702106"/>
      <trkpt lat="35.686262" lon="139.702120"/>
      <trkpt lat="35.686301" lon="139.702141"/>
      <trkpt lat="35.686391" lon="139.702210"/>
      <trkpt lat="35.686512" lon="139.702301"/>
      <trkpt lat="35.686588" lon="139.702361"/>
      <trkpt lat="35.687161" lon="139.702809"/>
      <trkpt lat="35.687257" lon="139.702909"/>
      <trkpt lat="35.687504" lon="139.702834"/>
      <trkpt lat="35.687719" lon="139.702768"/>
      <trkpt lat="35.687750" lon="139.702759"/>
      <trkpt lat="35.687863" lon="139.702703"/>
      <trkpt lat="35.688155" lon="139.702485"/>
      <trkpt lat="35.688420" lon="139.702382"/>
      <trkpt lat="35.689072" lon="139.702198"/>
      <trkpt lat="35.689079" lon="139.702238"/>
      <trkpt lat="35.689332" lon="139.702170"/>
      <trkpt lat="35.689588" lon="139.702098"/>
      <trkpt lat="35.689736" lon="139.702114"/>
      <trkpt lat="35.689774" lon="139.702119"/>
      <trkpt lat="35.690226" lon="139.702184"/>
      <trkpt lat="35.690276" lon="139.702195"/>
      <trkpt lat="35.690631" lon="139.702271"/>
      <trkpt lat="35.690727" lon="139.702291"/>
      <trkpt lat="35.691236" lon="139.702412"/>
      <trkpt lat="35.691741" lon="139.702603"/>
      <trkpt lat="35.691787" lon="139.702620"/>
      <trkpt lat="35.691770" lon="139.702658"/>
      <trkpt lat="35.691750" lon="139.702700"/>
      <trkpt lat="35.691780" lon="139.702696"/>
      <trkpt lat="35.691857" lon="139.702672"/>
      <trkpt lat="35.691876" lon="139.702667"/>
      <trkpt lat="35.691929" lon="139.702651"/>
      <trkpt lat="35.691967" lon="139.702639"/>
      <trkpt lat="35.691978" lon="139.702620"/>
      <trkpt lat="35.691991" lon="139.702592"/>
      <trkpt lat="35.692010" lon="139.702605"/>
      <trkpt lat="35.692033" lon="139.702618"/>
      <trkpt lat="35.692467" lon="139.702890"/>
      <trkpt lat="35.692705" lon="139.703039"/>
      <trkpt lat="35.692932" lon="139.703181"/>
      <trkpt lat="35.692942" lon="139.703187"/>
      <trkpt lat="35.692978" lon="139.703209"/>
      <trkpt lat="35.692971" lon="139.703236"/>
      <trkpt lat="35.692969" lon="139.703240"/>
      <trkpt lat="35.692960" lon="139.703269"/>
      <trkpt lat="35.692916" lon="139.703426"/>
      <trkpt lat="35.692915" lon="139.703431"/>
      <trkpt lat="35.692907" lon="139.703459"/>
      <trkpt lat="35.692899" lon="139.703488"/>
      <trkpt lat="35.692897" lon="139.703494"/>
      <trkpt lat="35.692856" lon="139.703641"/>
      <trkpt lat="35.692891" lon="139.703655"/>
      <trkpt lat="35.692896" lon="139.703657"/>
      <trkpt lat="35.692950" lon="139.703680"/>
      <trkpt lat="35.693001" lon="139.703701"/>
      <trkpt lat="35.693019" lon="139.703709"/>
      <trkpt lat="35.693030" lon="139.703714"/>
      <trkpt lat="35.693019" lon="139.703709"/>
      <trkpt lat="35.693001" lon="139.703701"/>
      <trkpt lat="35.692950" lon="139.703680"/>
      <trkpt lat="35.692896" lon="139.703657"/>
      <trkpt lat="35.692891" lon="139.703655"/>
      <trkpt lat="35.692856" lon="139.703641"/>
      <trkpt lat="35.692897" lon="139.703494"/>
      <trkpt lat="35.692899" lon="139.703488"/>
      <trkpt lat="35.692907" lon="139.703459"/>
      <trkpt lat="35.692915" lon="139.703431"/>
      <trkpt lat="35.692916" lon="139.703426"/>
      <trkpt lat="35.692960" lon="139.703270"/>
      <trkpt lat="35.692969" lon="139.703240"/>
      <trkpt lat="35.692971" lon="139.703236"/>
      <trkpt lat="35.692978" lon="139.703209"/>
      <trkpt lat="35.692942" lon="139.703187"/>
      <trkpt lat="35.692932" lon="139.703181"/>
      <trkpt lat="35.692705" lon="139.703039"/>
      <trkpt lat="35.692724" lon="139.703005"/>
      <trkpt lat="35.692726" lon="139.702999"/>
      <trkpt lat="35.692795" lon="139.702834"/>
      <trkpt lat="35.692877" lon="139.702639"/>
      <trkpt lat="35.692884" lon="139.702621"/>
      <trkpt lat="35.692892" lon="139.702602"/>
      <trkpt lat="35.692877" lon="139.702592"/>
      <trkpt lat="35.692872" lon="139.702589"/>
      <trkpt lat="35.692772" lon="139.702527"/>
      <trkpt lat="35.692727" lon="139.702504"/>
      <trkpt lat="35.692684" lon="139.702482"/>
      <trkpt lat="35.692679" lon="139.702479"/>
      <trkpt lat="35.692645" lon="139.702459"/>
      <trkpt lat="35.692614" lon="139.702440"/>
      <trkpt lat="35.692609" lon="139.702437"/>
      <trkpt lat="35.692562" lon="139.702409"/>
      <trkpt lat="35.692469" lon="139.702353"/>
      <trkpt lat="35.692348" lon="139.702282"/>
      <trkpt lat="35.692247" lon="139.702221"/>
      <trkpt lat="35.692185" lon="139.702173"/>
      <trkpt lat="35.692139" lon="139.702256"/>
      <trkpt lat="35.692012" lon="139.702541"/>
      <trkpt lat="35.691989" lon="139.702530"/>
      <trkpt lat="35.691984" lon="139.702527"/>
      <trkpt lat="35.691934" lon="139.702502"/>
      <trkpt lat="35.691888" lon="139.702479"/>
      <trkpt lat="35.691884" lon="139.702477"/>
      <trkpt lat="35.691858" lon="139.702463"/>
      <trkpt lat="35.691812" lon="139.702563"/>
      <trkpt lat="35.691802" lon="139.702586"/>
      <trkpt lat="35.691800" lon="139.702590"/>
      <trkpt lat="35.691787" lon="139.702620"/>
      <trkpt lat="35.691741" lon="139.702603"/>
      <trkpt lat="35.691236" lon="139.702412"/>
      <trkpt lat="35.691216" lon="139.702511"/>
      <trkpt lat="35.691146" lon="139.703028"/>
      <trkpt lat="35.690929" lon="139.702979"/>
      <trkpt lat="35.690683" lon="139.702924"/>
      <trkpt lat="35.690236" lon="139.702857"/>
      <trkpt lat="35.690210" lon="139.703200"/>
      <trkpt lat="35.690079" lon="139.703184"/>
      <trkpt lat="35.690053" lon="139.703195"/>
      <trkpt lat="35.689931" lon="139.703189"/>
      <trkpt lat="35.689883" lon="139.703196"/>
      <trkpt lat="35.689846" lon="139.703212"/>
      <trkpt lat="35.689855" lon="139.703255"/>
      <trkpt lat="35.689918" lon="139.703229"/>
      <trkpt lat="35.689955" lon="139.703224"/>
      <trkpt lat="35.690021" lon="139.703216"/>
      <trkpt lat="35.690567" lon="139.703335"/>
      <trkpt lat="35.690591" lon="139.703367"/>
      <trkpt lat="35.690607" lon="139.703373"/>
      <trkpt lat="35.690637" lon="139.703385"/>
      <trkpt lat="35.690654" lon="139.703305"/>
      <trkpt lat="35.690659" lon="139.703232"/>
      <trkpt lat="35.690683" lon="139.702924"/>
      <trkpt lat="35.690820" lon="139.702955"/>
      <trkpt lat="35.691146" lon="139.703028"/>
      <trkpt lat="35.691114" lon="139.703302"/>
      <trkpt lat="35.691099" lon="139.703348"/>
      <trkpt lat="35.691063" lon="139.703385"/>
      <trkpt lat="35.691296" lon="139.703538"/>
      <trkpt lat="35.691363" lon="139.703582"/>
      <trkpt lat="35.691376" lon="139.703552"/>
      <trkpt lat="35.691388" lon="139.703526"/>
      <trkpt lat="35.691409" lon="139.703479"/>
      <trkpt lat="35.691425" lon="139.703489"/>
      <trkpt lat="35.691475" lon="139.703523"/>
      <trkpt lat="35.691525" lon="139.703556"/>
      <trkpt lat="35.691542" lon="139.703567"/>
      <trkpt lat="35.691595" lon="139.703452"/>
      <trkpt lat="35.691607" lon="139.703427"/>
      <trkpt lat="35.691620" lon="139.703399"/>
      <trkpt lat="35.691696" lon="139.703230"/>
      <trkpt lat="35.691620" lon="139.703399"/>
      <trkpt lat="35.691607" lon="139.703427"/>
      <trkpt lat="35.691595" lon="139.703452"/>
      <trkpt lat="35.691542" lon="139.703567"/>
      <trkpt lat="35.691525" lon="139.703556"/>
      <trkpt lat="35.691475" lon="139.703523"/>
      <trkpt lat="35.691425" lon="139.703489"/>
      <trkpt lat="35.691409" lon="139.703479"/>
      <trkpt lat="35.691388" lon="139.703526"/>
      <trkpt lat="35.691376" lon="139.703552"/>
      <trkpt lat="35.691363" lon="139.703582"/>
      <trkpt lat="35.691296" lon="139.703538"/>
      <trkpt lat="35.691063" lon="139.703385"/>
      <trkpt lat="35.691025" lon="139.703424"/>
      <trkpt lat="35.690727" lon="139.704052"/>
      <trkpt lat="35.690522" lon="139.703907"/>
      <trkpt lat="35.690512" lon="139.703953"/>
      <trkpt lat="35.690470" lon="139.704169"/>
      <trkpt lat="35.690512" lon="139.703953"/>
      <trkpt lat="35.690522" lon="139.703907"/>
      <trkpt lat="35.690637" lon="139.703385"/>
      <trkpt lat="35.690654" lon="139.703305"/>
      <trkpt lat="35.690659" lon="139.703232"/>
      <trkpt lat="35.690683" lon="139.702924"/>
      <trkpt lat="35.690727" lon="139.702291"/>
      <trkpt lat="35.690773" lon="139.701816"/>
      <trkpt lat="35.690791" lon="139.701630"/>
      <trkpt lat="35.690817" lon="139.701664"/>
      <trkpt lat="35.690838" lon="139.701672"/>
      <trkpt lat="35.690862" lon="139.701670"/>
      <trkpt lat="35.690864" lon="139.701697"/>
      <trkpt lat="35.690872" lon="139.701789"/>
      <trkpt lat="35.690908" lon="139.701785"/>
      <trkpt lat="35.690904" lon="139.701736"/>
      <trkpt lat="35.690924" lon="139.701733"/>
      <trkpt lat="35.690983" lon="139.701726"/>
      <trkpt lat="35.691011" lon="139.701717"/>
      <trkpt lat="35.691053" lon="139.701712"/>
      <trkpt lat="35.691051" lon="139.701693"/>
      <trkpt lat="35.691047" lon="139.701646"/>
      <trkpt lat="35.691028" lon="139.701440"/>
      <trkpt lat="35.691018" lon="139.701334"/>
      <trkpt lat="35.691019" lon="139.701290"/>
      <trkpt lat="35.690872" lon="139.701312"/>
      <trkpt lat="35.690869" lon="139.701289"/>
      <trkpt lat="35.690841" lon="139.701238"/>
      <trkpt lat="35.690831" lon="139.701140"/>
      <trkpt lat="35.690813" lon="139.701087"/>
      <trkpt lat="35.690807" lon="139.701012"/>
      <trkpt lat="35.690804" lon="139.700976"/>
      <trkpt lat="35.690751" lon="139.700983"/>
      <trkpt lat="35.690746" lon="139.700938"/>
      <trkpt lat="35.690740" lon="139.700878"/>
      <trkpt lat="35.690781" lon="139.700872"/>
      <trkpt lat="35.691087" lon="139.700824"/>
      <trkpt lat="35.691084" lon="139.700791"/>
      <trkpt lat="35.691080" lon="139.700755"/>
      <trkpt lat="35.691076" lon="139.700714"/>
      <trkpt lat="35.691072" lon="139.700677"/>
      <trkpt lat="35.691066" lon="139.700607"/>
      <trkpt lat="35.691061" lon="139.700559"/>
      <trkpt lat="35.691051" lon="139.700455"/>
      <trkpt lat="35.691048" lon="139.700426"/>
      <trkpt lat="35.691038" lon="139.700326"/>
      <trkpt lat="35.691029" lon="139.700238"/>
      <trkpt lat="35.690970" lon="139.700243"/>
      <trkpt lat="35.690969" lon="139.700243"/>
      <trkpt lat="35.690922" lon="139.700248"/>
      <trkpt lat="35.690970" lon="139.700243"/>
      <trkpt lat="35.691029" lon="139.700238"/>
      <trkpt lat="35.691038" lon="139.700326"/>
      <trkpt lat="35.691048" lon="139.700426"/>
      <trkpt lat="35.691051" lon="139.700455"/>
      <trkpt lat="35.691061" lon="139.700559"/>
      <trkpt lat="35.691066" lon="139.700607"/>
      <trkpt lat="35.691072" lon="139.700677"/>
      <trkpt lat="35.691076" lon="139.700714"/>
      <trkpt lat="35.691080" lon="139.700755"/>
      <trkpt lat="35.691084" lon="139.700791"/>
      <trkpt lat="35.691136" lon="139.700784"/>
      <trkpt lat="35.691244" lon="139.700767"/>
      <trkpt lat="35.691396" lon="139.700747"/>
      <trkpt lat="35.691423" lon="139.700968"/>
      <trkpt lat="35.691437" lon="139.701095"/>
      <trkpt lat="35.691517" lon="139.701120"/>
      <trkpt lat="35.691526" lon="139.701224"/>
      <trkpt lat="35.691539" lon="139.701368"/>
      <trkpt lat="35.691557" lon="139.701576"/>
      <trkpt lat="35.691864" lon="139.701533"/>
      <trkpt lat="35.691866" lon="139.701557"/>
      <trkpt lat="35.691881" lon="139.701577"/>
      <trkpt lat="35.691905" lon="139.701599"/>
      <trkpt lat="35.691927" lon="139.701614"/>
      <trkpt lat="35.691947" lon="139.701623"/>
      <trkpt lat="35.691968" lon="139.701630"/>
      <trkpt lat="35.691987" lon="139.701635"/>
      <trkpt lat="35.692005" lon="139.701637"/>
      <trkpt lat="35.692028" lon="139.701636"/>
      <trkpt lat="35.692047" lon="139.701632"/>
      <trkpt lat="35.692065" lon="139.701626"/>
      <trkpt lat="35.692082" lon="139.701616"/>
      <trkpt lat="35.692101" lon="139.701601"/>
      <trkpt lat="35.692145" lon="139.701607"/>
      <trkpt lat="35.692184" lon="139.701613"/>
      <trkpt lat="35.692261" lon="139.701623"/>
      <trkpt lat="35.692252" lon="139.701690"/>
      <trkpt lat="35.692228" lon="139.701798"/>
      <trkpt lat="35.692204" lon="139.701898"/>
      <trkpt lat="35.692157" lon="139.702055"/>
      <trkpt lat="35.692241" lon="139.702104"/>
      <trkpt lat="35.692281" lon="139.702128"/>
      <trkpt lat="35.692280" lon="139.702130"/>
      <trkpt lat="35.692288" lon="139.702135"/>
      <trkpt lat="35.692297" lon="139.702141"/>
      <trkpt lat="35.692305" lon="139.702146"/>
      <trkpt lat="35.692314" lon="139.702151"/>
      <trkpt lat="35.692315" lon="139.702148"/>
      <trkpt lat="35.692356" lon="139.702172"/>
      <trkpt lat="35.692368" lon="139.702178"/>
      <trkpt lat="35.692681" lon="139.702368"/>
      <trkpt lat="35.692703" lon="139.702382"/>
      <trkpt lat="35.692712" lon="139.702387"/>
      <trkpt lat="35.693056" lon="139.702592"/>
      <trkpt lat="35.693074" lon="139.702603"/>
      <trkpt lat="35.693109" lon="139.702563"/>
      <trkpt lat="35.693121" lon="139.702567"/>
      <trkpt lat="35.693165" lon="139.702582"/>
      <trkpt lat="35.693228" lon="139.702604"/>
      <trkpt lat="35.693237" lon="139.702567"/>
      <trkpt lat="35.693268" lon="139.702430"/>
      <trkpt lat="35.693344" lon="139.702099"/>
      <trkpt lat="35.693268" lon="139.702430"/>
      <trkpt lat="35.693237" lon="139.702567"/>
      <trkpt lat="35.693228" lon="139.702604"/>
      <trkpt lat="35.693212" lon="139.702678"/>
      <trkpt lat="35.693203" lon="139.702714"/>
      <trkpt lat="35.693145" lon="139.702947"/>
      <trkpt lat="35.693138" lon="139.702973"/>
      <trkpt lat="35.693121" lon="139.703032"/>
      <trkpt lat="35.693096" lon="139.703021"/>
      <trkpt lat="35.693046" lon="139.703001"/>
      <trkpt lat="35.693043" lon="139.703010"/>
      <trkpt lat="35.693034" lon="139.703005"/>
      <trkpt lat="35.693026" lon="139.703002"/>
      <trkpt lat="35.692986" lon="139.703151"/>
      <trkpt lat="35.692942" lon="139.703141"/>
      <trkpt lat="35.692745" lon="139.703019"/>
      <trkpt lat="35.692740" lon="139.703016"/>
      <trkpt lat="35.692724" lon="139.703005"/>
      <trkpt lat="35.692707" lon="139.702995"/>
      <trkpt lat="35.692710" lon="139.702989"/>
      <trkpt lat="35.692583" lon="139.702910"/>
      <trkpt lat="35.692543" lon="139.702885"/>
      <trkpt lat="35.692531" lon="139.702835"/>
      <trkpt lat="35.692524" lon="139.702850"/>
      <trkpt lat="35.692492" lon="139.702830"/>
      <trkpt lat="35.692461" lon="139.702810"/>
      <trkpt lat="35.692456" lon="139.702807"/>
      <trkpt lat="35.692435" lon="139.702825"/>
      <trkpt lat="35.692049" lon="139.702584"/>
      <trkpt lat="35.692012" lon="139.702541"/>
      <trkpt lat="35.691989" lon="139.702530"/>
      <trkpt lat="35.691984" lon="139.702527"/>
      <trkpt lat="35.691934" lon="139.702502"/>
      <trkpt lat="35.691888" lon="139.702479"/>
      <trkpt lat="35.691884" lon="139.702477"/>
      <trkpt lat="35.691858" lon="139.702463"/>
      <trkpt lat="35.691812" lon="139.702563"/>
      <trkpt lat="35.691802" lon="139.702586"/>
      <trkpt lat="35.691800" lon="139.702590"/>
      <trkpt lat="35.691787" lon="139.702620"/>
      <trkpt lat="35.691741" lon="139.702603"/>
      <trkpt lat="35.691236" lon="139.702412"/>
      <trkpt lat="35.690870" lon="139.702325"/>
      <trkpt lat="35.691236" lon="139.702412"/>
      <trkpt lat="35.691741" lon="139.702603"/>
      <trkpt lat="35.691787" lon="139.702620"/>
      <trkpt lat="35.691770" lon="139.702658"/>
      <trkpt lat="35.691750" lon="139.702700"/>
      <trkpt lat="35.691701" lon="139.702807"/>
      <trkpt lat="35.691750" lon="139.702700"/>
      <trkpt lat="35.691780" lon="139.702696"/>
      <trkpt lat="35.691857" lon="139.702672"/>
      <trkpt lat="35.691876" lon="139.702667"/>
      <trkpt lat="35.691929" lon="139.702651"/>
      <trkpt lat="35.691967" lon="139.702639"/>
      <trkpt lat="35.691978" lon="139.702620"/>
      <trkpt lat="35.691991" lon="139.702592"/>
      <trkpt lat="35.692010" lon="139.702605"/>
      <trkpt lat="35.692033" lon="139.702618"/>
      <trkpt lat="35.692467" lon="139.702890"/>
      <trkpt lat="35.692705" lon="139.703039"/>
      <trkpt lat="35.692932" lon="139.703181"/>
      <trkpt lat="35.692942" lon="139.703187"/>
      <trkpt lat="35.692978" lon="139.703209"/>
      <trkpt lat="35.692971" lon="139.703236"/>
      <trkpt lat="35.692969" lon="139.703240"/>
      <trkpt lat="35.692960" lon="139.703269"/>
      <trkpt lat="35.692991" lon="139.703284"/>
      <trkpt lat="35.692995" lon="139.703286"/>
      <trkpt lat="35.693054" lon="139.703311"/>
      <trkpt lat="35.693103" lon="139.703332"/>
      <trkpt lat="35.693125" lon="139.703341"/>
      <trkpt lat="35.693174" lon="139.703362"/>
      <trkpt lat="35.693236" lon="139.703389"/>
      <trkpt lat="35.693239" lon="139.703390"/>
      <trkpt lat="35.693285" lon="139.703410"/>
      <trkpt lat="35.693268" lon="139.703453"/>
      <trkpt lat="35.693261" lon="139.703475"/>
      <trkpt lat="35.693260" lon="139.703480"/>
      <trkpt lat="35.693246" lon="139.703529"/>
      <trkpt lat="35.693231" lon="139.703583"/>
      <trkpt lat="35.693227" lon="139.703595"/>
      <trkpt lat="35.693200" lon="139.703673"/>
      <trkpt lat="35.693217" lon="139.703705"/>
      <trkpt lat="35.693223" lon="139.703716"/>
      <trkpt lat="35.693222" lon="139.703749"/>
      <trkpt lat="35.693251" lon="139.703799"/>
      <trkpt lat="35.693268" lon="139.703826"/>
      <trkpt lat="35.693298" lon="139.703872"/>
      <trkpt lat="35.693363" lon="139.703959"/>
      <trkpt lat="35.693385" lon="139.703986"/>
      <trkpt lat="35.693363" lon="139.703959"/>
      <trkpt lat="35.693298" lon="139.703872"/>
      <trkpt lat="35.693268" lon="139.703826"/>
      <trkpt lat="35.693251" lon="139.703799"/>
      <trkpt lat="35.693222" lon="139.703749"/>
      <trkpt lat="35.693223" lon="139.703716"/>
      <trkpt lat="35.693217" lon="139.703705"/>
      <trkpt lat="35.693200" lon="139.703673"/>
      <trkpt lat="35.693227" lon="139.703595"/>
      <trkpt lat="35.693231" lon="139.703583"/>
      <trkpt lat="35.693246" lon="139.703529"/>
      <trkpt lat="35.693260" lon="139.703480"/>
      <trkpt lat="35.693261" lon="139.703475"/>
      <trkpt lat="35.693268" lon="139.703453"/>
      <trkpt lat="35.693285" lon="139.703410"/>
      <trkpt lat="35.693239" lon="139.703390"/>
      <trkpt lat="35.693236" lon="139.703389"/>
      <trkpt lat="35.693174" lon="139.703362"/>
      <trkpt lat="35.693125" lon="139.703341"/>
      <trkpt lat="35.693103" lon="139.703332"/>
      <trkpt lat="35.693054" lon="139.703311"/>
      <trkpt lat="35.692995" lon="139.703286"/>
      <trkpt lat="35.692991" lon="139.703284"/>
      <trkpt lat="35.692960" lon="139.703269"/>
      <trkpt lat="35.692969" lon="139.703240"/>
      <trkpt lat="35.692971" lon="139.703236"/>
      <trkpt lat="35.692978" lon="139.703209"/>
      <trkpt lat="35.692942" lon="139.703187"/>
      <trkpt lat="35.692932" lon="139.703181"/>
      <trkpt lat="35.692705" lon="139.703039"/>
      <trkpt lat="35.692467" lon="139.702890"/>
      <trkpt lat="35.692033" lon="139.702618"/>
      <trkpt lat="35.692010" lon="139.702605"/>
      <trkpt lat="35.691991" lon="139.702592"/>
      <trkpt lat="35.691978" lon="139.702620"/>
      <trkpt lat="35.691967" lon="139.702639"/>
      <trkpt lat="35.691929" lon="139.702651"/>
      <trkpt lat="35.691876" lon="139.702667"/>
      <trkpt lat="35.691857" lon="139.702672"/>
      <trkpt lat="35.691780" lon="139.702696"/>
      <trkpt lat="35.691750" lon="139.702700"/>
      <trkpt lat="35.691770" lon="139.702658"/>
      <trkpt lat="35.691787" lon="139.702620"/>
      <trkpt lat="35.691741" lon="139.702603"/>
      <trkpt lat="35.691236" lon="139.702412"/>
      <trkpt lat="35.690727" lon="139.702291"/>
      <trkpt lat="35.690631" lon="139.702271"/>
      <trkpt lat="35.690276" lon="139.702195"/>
      <trkpt lat="35.690245" lon="139.702703"/>
      <trkpt lat="35.689755" lon="139.702643"/>
      <trkpt lat="35.689708" lon="139.702626"/>
      <trkpt lat="35.689693" lon="139.702631"/>
      <trkpt lat="35.689451" lon="139.702708"/>
      <trkpt lat="35.689435" lon="139.702713"/>
      <trkpt lat="35.689385" lon="139.702651"/>
      <trkpt lat="35.689005" lon="139.702765"/>
      <trkpt lat="35.688849" lon="139.702822"/>
      <trkpt lat="35.688356" lon="139.703046"/>
      <trkpt lat="35.688299" lon="139.703071"/>
      <trkpt lat="35.688129" lon="139.702956"/>
      <trkpt lat="35.688034" lon="139.702886"/>
      <trkpt lat="35.687994" lon="139.702972"/>
      <trkpt lat="35.687968" lon="139.703028"/>
      <trkpt lat="35.687928" lon="139.703008"/>
      <trkpt lat="35.687799" lon="139.702995"/>
      <trkpt lat="35.687617" lon="139.703039"/>
      <trkpt lat="35.687551" lon="139.703054"/>
      <trkpt lat="35.686938" lon="139.703225"/>
      <trkpt lat="35.686983" lon="139.703517"/>
      <trkpt lat="35.686646" lon="139.703610"/>
      <trkpt lat="35.686983" lon="139.703517"/>
      <trkpt lat="35.686938" lon="139.703225"/>
      <trkpt lat="35.687551" lon="139.703054"/>
      <trkpt lat="35.687539" lon="139.702998"/>
      <trkpt lat="35.687524" lon="139.702920"/>
      <trkpt lat="35.687504" lon="139.702834"/>
      <trkpt lat="35.687719" lon="139.702768"/>
      <trkpt lat="35.687750" lon="139.702759"/>
      <trkpt lat="35.687863" lon="139.702703"/>
      <trkpt lat="35.688155" lon="139.702485"/>
      <trkpt lat="35.688420" lon="139.702382"/>
      <trkpt lat="35.689072" lon="139.702198"/>
      <trkpt lat="35.689245" lon="139.702145"/>
      <trkpt lat="35.689448" lon="139.702083"/>
      <trkpt lat="35.689565" lon="139.702037"/>
      <trkpt lat="35.689605" lon="139.702022"/>
      <trkpt lat="35.689571" lon="139.701808"/>
      <trkpt lat="35.689520" lon="139.701692"/>
      <trkpt lat="35.689495" lon="139.701544"/>
      <trkpt lat="35.689490" lon="139.701516"/>
      <trkpt lat="35.689522" lon="139.701509"/>
      <trkpt lat="35.689671" lon="139.701467"/>
      <trkpt lat="35.689636" lon="139.701267"/>
      <trkpt lat="35.689667" lon="139.701259"/>
      <trkpt lat="35.689663" lon="139.701238"/>
      <trkpt lat="35.689684" lon="139.701247"/>
      <trkpt lat="35.689794" lon="139.701219"/>
      <trkpt lat="35.689802" lon="139.701223"/>
      <trkpt lat="35.689804" lon="139.701234"/>
      <trkpt lat="35.690328" lon="139.701096"/>
      <trkpt lat="35.690354" lon="139.701058"/>
      <trkpt lat="35.690512" lon="139.701017"/>
      <trkpt lat="35.690596" lon="139.700997"/>
      <trkpt lat="35.690592" lon="139.700969"/>
      <trkpt lat="35.690652" lon="139.700953"/>
      <trkpt lat="35.690643" lon="139.700876"/>
      <trkpt lat="35.690627" lon="139.700719"/>
      <trkpt lat="35.690623" lon="139.700661"/>
      <trkpt lat="35.690592" lon="139.700521"/>
      <trkpt lat="35.690526" lon="139.700319"/>
      <trkpt lat="35.690466" lon="139.700131"/>
      <trkpt lat="35.690430" lon="139.700022"/>
      <trkpt lat="35.690412" lon="139.699964"/>
      <trkpt lat="35.690392" lon="139.699901"/>
      <trkpt lat="35.690327" lon="139.699908"/>
      <trkpt lat="35.690321" lon="139.699833"/>
      <trkpt lat="35.690316" lon="139.699782"/>
      <trkpt lat="35.690280" lon="139.699397"/>
      <trkpt lat="35.690276" lon="139.699357"/>
      <trkpt lat="35.690268" lon="139.699279"/>
      <trkpt lat="35.690340" lon="139.699269"/>
      <trkpt lat="35.690352" lon="139.699252"/>
      <trkpt lat="35.690347" lon="139.699201"/>
      <trkpt lat="35.690336" lon="139.699097"/>
      <trkpt lat="35.690443" lon="139.699082"/>
      <trkpt lat="35.690570" lon="139.699066"/>
      <trkpt lat="35.690590" lon="139.699063"/>
      <trkpt lat="35.690603" lon="139.699061"/>
      <trkpt lat="35.690749" lon="139.699044"/>
      <trkpt lat="35.690816" lon="139.698986"/>
      <trkpt lat="35.690864" lon="139.698975"/>
      <trkpt lat="35.690873" lon="139.699013"/>
      <trkpt lat="35.690944" lon="139.699156"/>
      <trkpt lat="35.690983" lon="139.699129"/>
      <trkpt lat="35.690997" lon="139.699166"/>
      <trkpt lat="35.691064" lon="139.699184"/>
      <trkpt lat="35.691522" lon="139.699189"/>
      <trkpt lat="35.691786" lon="139.699188"/>
      <trkpt lat="35.691994" lon="139.699341"/>
      <trkpt lat="35.692096" lon="139.699413"/>
      <trkpt lat="35.692162" lon="139.699441"/>
      <trkpt lat="35.692213" lon="139.699451"/>
      <trkpt lat="35.692251" lon="139.699449"/>
      <trkpt lat="35.692301" lon="139.699442"/>
      <trkpt lat="35.692393" lon="139.699430"/>
      <trkpt lat="35.692617" lon="139.699398"/>
      <trkpt lat="35.692634" lon="139.699396"/>
      <trkpt lat="35.692670" lon="139.699392"/>
      <trkpt lat="35.692718" lon="139.699385"/>
      <trkpt lat="35.692742" lon="139.699382"/>
      <trkpt lat="35.692742" lon="139.699383"/>
      <trkpt lat="35.692744" lon="139.699383"/>
      <trkpt lat="35.693281" lon="139.699293"/>
      <trkpt lat="35.693398" lon="139.699336"/>
      <trkpt lat="35.693415" lon="139.699403"/>
      <trkpt lat="35.693468" lon="139.699393"/>
      <trkpt lat="35.693533" lon="139.699385"/>
      <trkpt lat="35.693591" lon="139.699378"/>
      <trkpt lat="35.693675" lon="139.699367"/>
      <trkpt lat="35.693718" lon="139.699361"/>
      <trkpt lat="35.693776" lon="139.699353"/>
      <trkpt lat="35.693809" lon="139.699349"/>
      <trkpt lat="35.693822" lon="139.699538"/>
      <trkpt lat="35.693863" lon="139.700140"/>
      <trkpt lat="35.693880" lon="139.700140"/>
      <trkpt lat="35.693914" lon="139.700134"/>
      <trkpt lat="35.693933" lon="139.700132"/>
      <trkpt lat="35.693961" lon="139.700131"/>
      <trkpt lat="35.693908" lon="139.700236"/>
      <trkpt lat="35.693867" lon="139.700491"/>
      <trkpt lat="35.693817" lon="139.700715"/>
      <trkpt lat="35.693655" lon="139.701433"/>
      <trkpt lat="35.693545" lon="139.701925"/>
      <trkpt lat="35.693518" lon="139.702045"/>
      <trkpt lat="35.693561" lon="139.702060"/>
      <trkpt lat="35.693580" lon="139.702067"/>
      <trkpt lat="35.693591" lon="139.702058"/>
      <trkpt lat="35.693596" lon="139.702060"/>
      <trkpt lat="35.693603" lon="139.702062"/>
      <trkpt lat="35.693602" lon="139.702069"/>
      <trkpt lat="35.693602" lon="139.702071"/>
      <trkpt lat="35.693598" lon="139.702088"/>
      <trkpt lat="35.693609" lon="139.702091"/>
      <trkpt lat="35.693574" lon="139.702247"/>
      <trkpt lat="35.693551" lon="139.702291"/>
      <trkpt lat="35.693549" lon="139.702298"/>
      <trkpt lat="35.693541" lon="139.702337"/>
      <trkpt lat="35.693578" lon="139.702356"/>
      <trkpt lat="35.693583" lon="139.702358"/>
      <trkpt lat="35.693891" lon="139.702509"/>
      <trkpt lat="35.693583" lon="139.702358"/>
      <trkpt lat="35.693578" lon="139.702356"/>
      <trkpt lat="35.693541" lon="139.702337"/>
      <trkpt lat="35.693530" lon="139.702383"/>
      <trkpt lat="35.693529" lon="139.702390"/>
      <trkpt lat="35.693534" lon="139.702420"/>
      <trkpt lat="35.693508" lon="139.702395"/>
      <trkpt lat="35.693500" lon="139.702392"/>
      <trkpt lat="35.693431" lon="139.702368"/>
      <trkpt lat="35.693379" lon="139.702350"/>
      <trkpt lat="35.693357" lon="139.702343"/>
      <trkpt lat="35.693308" lon="139.702325"/>
      <trkpt lat="35.693244" lon="139.702303"/>
      <trkpt lat="35.693239" lon="139.702301"/>
      <trkpt lat="35.693236" lon="139.702315"/>
      <trkpt lat="35.693224" lon="139.702310"/>
      <trkpt lat="35.693199" lon="139.702301"/>
      <trkpt lat="35.693151" lon="139.702516"/>
      <trkpt lat="35.693138" lon="139.702574"/>
      <trkpt lat="35.693137" lon="139.702579"/>
      <trkpt lat="35.693125" lon="139.702629"/>
      <trkpt lat="35.693053" lon="139.702587"/>
      <trkpt lat="35.692929" lon="139.702513"/>
      <trkpt lat="35.692787" lon="139.702428"/>
      <trkpt lat="35.692763" lon="139.702414"/>
      <trkpt lat="35.692681" lon="139.702364"/>
      <trkpt lat="35.692600" lon="139.702316"/>
      <trkpt lat="35.692290" lon="139.702133"/>
      <trkpt lat="35.692273" lon="139.702122"/>
      <trkpt lat="35.692223" lon="139.702091"/>
      <trkpt lat="35.692213" lon="139.702116"/>
      <trkpt lat="35.692210" lon="139.702122"/>
      <trkpt lat="35.692185" lon="139.702173"/>
      <trkpt lat="35.692139" lon="139.702256"/>
      <trkpt lat="35.692012" lon="139.702541"/>
      <trkpt lat="35.691989" lon="139.702530"/>
      <trkpt lat="35.691984" lon="139.702527"/>
      <trkpt lat="35.691934" lon="139.702502"/>
      <trkpt lat="35.691888" lon="139.702479"/>
      <trkpt lat="35.691884" lon="139.702477"/>
      <trkpt lat="35.691858" lon="139.702463"/>
      <trkpt lat="35.691812" lon="139.702563"/>
      <trkpt lat="35.691802" lon="139.702586"/>
      <trkpt lat="35.691800" lon="139.702590"/>
      <trkpt lat="35.691787" lon="139.702620"/>
      <trkpt lat="35.691770" lon="139.702658"/>
      <trkpt lat="35.691750" lon="139.702700"/>
      <trkpt lat="35.691774" lon="139.702716"/>
      <trkpt lat="35.691822" lon="139.702750"/>
      <trkpt lat="35.691871" lon="139.702783"/>
      <trkpt lat="35.691913" lon="139.702808"/>
      <trkpt lat="35.691956" lon="139.702834"/>
      <trkpt lat="35.691953" lon="139.702841"/>
      <trkpt lat="35.692561" lon="139.703232"/>
      <trkpt lat="35.692585" lon="139.703248"/>
      <trkpt lat="35.692604" lon="139.703261"/>
      <trkpt lat="35.692621" lon="139.703271"/>
      <trkpt lat="35.692586" lon="139.703373"/>
      <trkpt lat="35.692621" lon="139.703271"/>
      <trkpt lat="35.692604" lon="139.703261"/>
      <trkpt lat="35.692585" lon="139.703248"/>
      <trkpt lat="35.692561" lon="139.703232"/>
      <trkpt lat="35.691953" lon="139.702841"/>
      <trkpt lat="35.691956" lon="139.702834"/>
      <trkpt lat="35.691913" lon="139.702808"/>
      <trkpt lat="35.691871" lon="139.702783"/>
      <trkpt lat="35.691822" lon="139.702750"/>
      <trkpt lat="35.691774" lon="139.702716"/>
      <trkpt lat="35.691750" lon="139.702700"/>
      <trkpt lat="35.691770" lon="139.702658"/>
      <trkpt lat="35.691787" lon="139.702620"/>
      <trkpt lat="35.691741" lon="139.702603"/>
      <trkpt lat="35.691236" lon="139.702412"/>
      <trkpt lat="35.690727" lon="139.702291"/>
      <trkpt lat="35.690631" lon="139.702271"/>
      <trkpt lat="35.690276" lon="139.702195"/>
      <trkpt lat="35.690245" lon="139.702703"/>
      <trkpt lat="35.689755" lon="139.702643"/>
      <trkpt lat="35.689708" lon="139.702626"/>
      <trkpt lat="35.689693" lon="139.702631"/>
      <trkpt lat="35.689451" lon="139.702708"/>
      <trkpt lat="35.689435" lon="139.702713"/>
      <trkpt lat="35.689385" lon="139.702651"/>
      <trkpt lat="35.689005" lon="139.702765"/>
      <trkpt lat="35.688849" lon="139.702822"/>
      <trkpt lat="35.688356" lon="139.703046"/>
      <trkpt lat="35.688391" lon="139.703079"/>
      <trkpt lat="35.688408" lon="139.703085"/>
      <trkpt lat="35.688621" lon="139.703230"/>
      <trkpt lat="35.688767" lon="139.703328"/>
      <trkpt lat="35.688621" lon="139.703230"/>
      <trkpt lat="35.688653" lon="139.703161"/>
      <trkpt lat="35.688609" lon="139.703271"/>
      <trkpt lat="35.688564" lon="139.703242"/>
      <trkpt lat="35.687814" lon="139.702759"/>
      <trkpt lat="35.687482" lon="139.702866"/>
      <trkpt lat="35.687333" lon="139.702858"/>
      <trkpt lat="35.687275" lon="139.702853"/>
      <trkpt lat="35.687257" lon="139.702909"/>
      <trkpt lat="35.687204" lon="139.702926"/>
      <trkpt lat="35.687104" lon="139.702957"/>
      <trkpt lat="35.687045" lon="139.702972"/>
      <trkpt lat="35.686896" lon="139.703030"/>
      <trkpt lat="35.686811" lon="139.703056"/>
      <trkpt lat="35.686268" lon="139.703221"/>
      <trkpt lat="35.685970" lon="139.703292"/>
      <trkpt lat="35.685318" lon="139.703493"/>
      <trkpt lat="35.684687" lon="139.703670"/>
      <trkpt lat="35.684548" lon="139.703724"/>
      <trkpt lat="35.684475" lon="139.703735"/>
      <trkpt lat="35.684458" lon="139.703726"/>
      <trkpt lat="35.684417" lon="139.703748"/>
      <trkpt lat="35.683771" lon="139.703039"/>
      <trkpt lat="35.683745" lon="139.703011"/>
      <trkpt lat="35.683700" lon="139.702941"/>
      <trkpt lat="35.683662" lon="139.702915"/>
      <trkpt lat="35.683623" lon="139.702899"/>
      <trkpt lat="35.683586" lon="139.702888"/>
      <trkpt lat="35.683539" lon="139.702878"/>
      <trkpt lat="35.683504" lon="139.702875"/>
      <trkpt lat="35.683472" lon="139.702876"/>
      <trkpt lat="35.683448" lon="139.702877"/>
      <trkpt lat="35.683428" lon="139.702880"/>
      <trkpt lat="35.683372" lon="139.702896"/>
      <trkpt lat="35.683323" lon="139.702908"/>
      <trkpt lat="35.683234" lon="139.702933"/>
      <trkpt lat="35.683197" lon="139.702938"/>
      <trkpt lat="35.683159" lon="139.702936"/>
      <trkpt lat="35.683127" lon="139.702927"/>
      <trkpt lat="35.683102" lon="139.702916"/>
      <trkpt lat="35.683082" lon="139.702902"/>
      <trkpt lat="35.683061" lon="139.702871"/>
      <trkpt lat="35.683047" lon="139.702827"/>
      <trkpt lat="35.683038" lon="139.702785"/>
      <trkpt lat="35.683027" lon="139.702730"/>
      <trkpt lat="35.683022" lon="139.702710"/>
      <trkpt lat="35.683017" lon="139.702684"/>
      <trkpt lat="35.683014" lon="139.702667"/>
      <trkpt lat="35.682940" lon="139.702243"/>
      <trkpt lat="35.682934" lon="139.702213"/>
      <trkpt lat="35.682926" lon="139.702184"/>
      <trkpt lat="35.682902" lon="139.702136"/>
      <trkpt lat="35.682865" lon="139.702164"/>
      <trkpt lat="35.682843" lon="139.702130"/>
      <trkpt lat="35.682825" lon="139.702118"/>
      <trkpt lat="35.682802" lon="139.702092"/>
      <trkpt lat="35.682575" lon="139.702373"/>
      <trkpt lat="35.682500" lon="139.702466"/>
      <trkpt lat="35.682491" lon="139.702476"/>
      <trkpt lat="35.682257" lon="139.702742"/>
      <trkpt lat="35.682078" lon="139.702955"/>
      <trkpt lat="35.682009" lon="139.703037"/>
      <trkpt lat="35.681935" lon="139.703119"/>
      <trkpt lat="35.681684" lon="139.703397"/>
      <trkpt lat="35.681638" lon="139.703450"/>
      <trkpt lat="35.680894" lon="139.704315"/>
      <trkpt lat="35.680864" lon="139.704350"/>
      <trkpt lat="35.680840" lon="139.704419"/>
      <trkpt lat="35.680809" lon="139.704420"/>
      <trkpt lat="35.680785" lon="139.704422"/>
      <trkpt lat="35.680750" lon="139.704453"/>
      <trkpt lat="35.680747" lon="139.704521"/>
      <trkpt lat="35.680747" lon="139.704600"/>
      <trkpt lat="35.680663" lon="139.704680"/>
      <trkpt lat="35.680565" lon="139.704877"/>
      <trkpt lat="35.680552" lon="139.704907"/>
      <trkpt lat="35.680512" lon="139.705035"/>
      <trkpt lat="35.680463" lon="139.705161"/>
      <trkpt lat="35.680270" lon="139.705670"/>
      <trkpt lat="35.680227" lon="139.705785"/>
      <trkpt lat="35.679885" lon="139.706734"/>
      <trkpt lat="35.679865" lon="139.706783"/>
      <trkpt lat="35.679894" lon="139.706785"/>
      <trkpt lat="35.679637" lon="139.707497"/>
      <trkpt lat="35.679608" lon="139.707484"/>
      <trkpt lat="35.679523" lon="139.707696"/>
      <trkpt lat="35.679381" lon="139.708070"/>
      <trkpt lat="35.679329" lon="139.708182"/>
      <trkpt lat="35.679064" lon="139.708681"/>
      <trkpt lat="35.678796" lon="139.708407"/>
      <trkpt lat="35.678675" lon="139.708251"/>
      <trkpt lat="35.678796" lon="139.708407"/>
      <trkpt lat="35.679064" lon="139.708681"/>
      <trkpt lat="35.678815" lon="139.709166"/>
      <trkpt lat="35.678699" lon="139.709352"/>
      <trkpt lat="35.678497" lon="139.709602"/>
      <trkpt lat="35.678425" lon="139.709636"/>
      <trkpt lat="35.678400" lon="139.709760"/>
      <trkpt lat="35.677856" lon="139.710514"/>
      <trkpt lat="35.677663" lon="139.710774"/>
      <trkpt lat="35.677379" lon="139.711144"/>
      <trkpt lat="35.677169" lon="139.711443"/>
      <trkpt lat="35.677053" lon="139.711941"/>
      <trkpt lat="35.677005" lon="139.712259"/>
      <trkpt lat="35.676971" lon="139.712503"/>
      <trkpt lat="35.676926" lon="139.712488"/>
      <trkpt lat="35.676911" lon="139.712493"/>
      <trkpt lat="35.676913" lon="139.712573"/>
    </trkseg>
  </trk>
</gpx>
